speciesCode,comName,sciName,locId,locName,obsDt,howMany,lat,lng,obsValid,obsReviewed,locationPrivate,subId,formatted_address,exoticCategory
tawfro1,Tawny Frogmouth,Podargus strigoides,L28355910,"Yard List, Ashgrove",2024-06-12 20:18,1.0,-27.4498303,152.9771613,True,False,True,S180932085,"220B Coopers Camp Rd, Ashgrove QLD 4060, Australia",
latnig2,Large-tailed Nightjar,Caprimulgus macrurus,L1175729,Mangroves near Orchard Rd (Coconut Grove),2024-06-12 18:58,1.0,-12.396642,130.847231,True,False,False,S180927762,"21 Orchard Rd, Coconut Grove NT 0810, Australia",
rabeat1,Rainbow Bee-eater,Merops ornatus,L1175729,Mangroves near Orchard Rd (Coconut Grove),2024-06-12 18:36,3.0,-12.396642,130.847231,True,False,False,S180926578,"21 Orchard Rd, Coconut Grove NT 0810, Australia",
ayweye3,Australian Yellow White-eye,Zosterops luteus,L1175729,Mangroves near Orchard Rd (Coconut Grove),2024-06-12 18:36,3.0,-12.396642,130.847231,True,False,False,S180926578,"21 Orchard Rd, Coconut Grove NT 0810, Australia",
norfan1,Northern Fantail,Rhipidura rufiventris,L1175729,Mangroves near Orchard Rd (Coconut Grove),2024-06-12 18:36,1.0,-12.396642,130.847231,True,False,False,S180926578,"21 Orchard Rd, Coconut Grove NT 0810, Australia",
ausfig1,Australasian Figbird,Sphecotheres vieilloti,L1175729,Mangroves near Orchard Rd (Coconut Grove),2024-06-12 18:36,2.0,-12.396642,130.847231,True,False,False,S180926578,"21 Orchard Rd, Coconut Grove NT 0810, Australia",
rewpar1,Red-winged Parrot,Aprosmictus erythropterus,L1175729,Mangroves near Orchard Rd (Coconut Grove),2024-06-12 18:36,8.0,-12.396642,130.847231,True,False,False,S180926287,"21 Orchard Rd, Coconut Grove NT 0810, Australia",
perfal,Peregrine Falcon,Falco peregrinus,L1175729,Mangroves near Orchard Rd (Coconut Grove),2024-06-12 18:36,1.0,-12.396642,130.847231,True,False,False,S180926287,"21 Orchard Rd, Coconut Grove NT 0810, Australia",
brbfly1,Broad-billed Flycatcher,Myiagra ruficollis,L1175729,Mangroves near Orchard Rd (Coconut Grove),2024-06-12 18:36,1.0,-12.396642,130.847231,True,False,False,S180926578,"21 Orchard Rd, Coconut Grove NT 0810, Australia",
dusmyz1,Dusky Myzomela,Myzomela obscura,L1175729,Mangroves near Orchard Rd (Coconut Grove),2024-06-12 18:36,1.0,-12.396642,130.847231,True,False,False,S180926578,"21 Orchard Rd, Coconut Grove NT 0810, Australia",
peadov1,Peaceful Dove,Geopelia placida,L1175729,Mangroves near Orchard Rd (Coconut Grove),2024-06-12 18:36,4.0,-12.396642,130.847231,True,False,False,S180926578,"21 Orchard Rd, Coconut Grove NT 0810, Australia",
rubhon2,Rufous-banded Honeyeater,Conopophila albogularis,L1175729,Mangroves near Orchard Rd (Coconut Grove),2024-06-12 18:36,4.0,-12.396642,130.847231,True,False,False,S180926578,"21 Orchard Rd, Coconut Grove NT 0810, Australia",
whbwoo4,White-breasted Woodswallow,Artamus leucorynchus,L1175729,Mangroves near Orchard Rd (Coconut Grove),2024-06-12 18:36,4.0,-12.396642,130.847231,True,False,False,S180926578,"21 Orchard Rd, Coconut Grove NT 0810, Australia",
helfri1,Helmeted Friarbird,Philemon buceroides,L1175729,Mangroves near Orchard Rd (Coconut Grove),2024-06-12 18:36,1.0,-12.396642,130.847231,True,False,False,S180926578,"21 Orchard Rd, Coconut Grove NT 0810, Australia",
libcuc1,Little Bronze-Cuckoo,Chrysococcyx minutillus,L1175729,Mangroves near Orchard Rd (Coconut Grove),2024-06-12 18:36,1.0,-12.396642,130.847231,True,False,False,S180926578,"21 Orchard Rd, Coconut Grove NT 0810, Australia",
orfscr1,Orange-footed Megapode,Megapodius reinwardt,L1175729,Mangroves near Orchard Rd (Coconut Grove),2024-06-12 18:36,2.0,-12.396642,130.847231,True,False,False,S180926287,"21 Orchard Rd, Coconut Grove NT 0810, Australia",
blabut1,Black Butcherbird,Melloria quoyi,L1175729,Mangroves near Orchard Rd (Coconut Grove),2024-06-12 18:36,1.0,-12.396642,130.847231,True,False,False,S180926578,"21 Orchard Rd, Coconut Grove NT 0810, Australia",
arafan1,Arafura Fantail,Rhipidura dryas,L1175729,Mangroves near Orchard Rd (Coconut Grove),2024-06-12 18:36,1.0,-12.396642,130.847231,True,False,False,S180926578,"21 Orchard Rd, Coconut Grove NT 0810, Australia",
shifly1,Shining Flycatcher,Myiagra alecto,L1175729,Mangroves near Orchard Rd (Coconut Grove),2024-06-12 18:36,2.0,-12.396642,130.847231,True,False,False,S180926578,"21 Orchard Rd, Coconut Grove NT 0810, Australia",
spadro1,Spangled Drongo,Dicrurus bracteatus,L1175729,Mangroves near Orchard Rd (Coconut Grove),2024-06-12 18:36,1.0,-12.396642,130.847231,True,False,False,S180926578,"21 Orchard Rd, Coconut Grove NT 0810, Australia",
basdov1,Bar-shouldered Dove,Geopelia humeralis,L1175729,Mangroves near Orchard Rd (Coconut Grove),2024-06-12 18:36,2.0,-12.396642,130.847231,True,False,False,S180926578,"21 Orchard Rd, Coconut Grove NT 0810, Australia",
litfri1,Little Friarbird,Philemon citreogularis,L1175729,Mangroves near Orchard Rd (Coconut Grove),2024-06-12 18:36,2.0,-12.396642,130.847231,True,False,False,S180926287,"21 Orchard Rd, Coconut Grove NT 0810, Australia",
rehmyz1,Red-headed Myzomela,Myzomela erythrocephala,L1175729,Mangroves near Orchard Rd (Coconut Grove),2024-06-12 18:36,4.0,-12.396642,130.847231,True,False,False,S180926578,"21 Orchard Rd, Coconut Grove NT 0810, Australia",
whghon1,White-gaped Honeyeater,Stomiopera unicolor,L1175729,Mangroves near Orchard Rd (Coconut Grove),2024-06-12 18:36,2.0,-12.396642,130.847231,True,False,False,S180926578,"21 Orchard Rd, Coconut Grove NT 0810, Australia",
railor7,Red-collared Lorikeet,Trichoglossus rubritorquis,L1175729,Mangroves near Orchard Rd (Coconut Grove),2024-06-12 18:36,40.0,-12.396642,130.847231,True,False,False,S180926287,"21 Orchard Rd, Coconut Grove NT 0810, Australia",
crifin1,Crimson Finch,Neochmia phaeton,L1175729,Mangroves near Orchard Rd (Coconut Grove),2024-06-12 18:36,3.0,-12.396642,130.847231,True,False,False,S180926578,"21 Orchard Rd, Coconut Grove NT 0810, Australia",
rcfdov1,Rose-crowned Fruit-Dove,Ptilinopus regina,L1175729,Mangroves near Orchard Rd (Coconut Grove),2024-06-12 18:36,1.0,-12.396642,130.847231,True,False,False,S180926578,"21 Orchard Rd, Coconut Grove NT 0810, Australia",
vartri1,Varied Triller,Lalage leucomela,L1175729,Mangroves near Orchard Rd (Coconut Grove),2024-06-12 18:36,1.0,-12.396642,130.847231,True,False,False,S180926578,"21 Orchard Rd, Coconut Grove NT 0810, Australia",
brohon1,Brown Honeyeater,Lichmera indistincta,L1175729,Mangroves near Orchard Rd (Coconut Grove),2024-06-12 18:36,4.0,-12.396642,130.847231,True,False,False,S180926287,"21 Orchard Rd, Coconut Grove NT 0810, Australia",
dobfin1,Double-barred Finch,Stizoptera bichenovii,L1175729,Mangroves near Orchard Rd (Coconut Grove),2024-06-12 18:36,6.0,-12.396642,130.847231,True,False,False,S180926578,"21 Orchard Rd, Coconut Grove NT 0810, Australia",
plwduc1,Plumed Whistling-Duck,Dendrocygna eytoni,L33206976,"122 Dan Street, Karalee, Queensland, AU (-27.565, 152.805)",2024-06-12 18:20,1.0,-27.5649253,152.8051878,True,False,True,S180924258,"122 Dan St, Karalee QLD 4306, Australia",
maslap1,Masked Lapwing,Vanellus miles,L33206976,"122 Dan Street, Karalee, Queensland, AU (-27.565, 152.805)",2024-06-12 18:20,2.0,-27.5649253,152.8051878,True,False,True,S180924258,"122 Dan St, Karalee QLD 4306, Australia",
apostl1,Apostlebird,Struthidea cinerea,L2540242,Central Arnhem Rd at Roper Creek,2024-06-12 17:48,8.0,-14.63673,132.68574,True,False,False,S180927345,"State Route 24, Beswick Creek NT 0852, Australia",
sicfri1,Silver-crowned Friarbird,Philemon argenticeps,L2540242,Central Arnhem Rd at Roper Creek,2024-06-12 17:48,2.0,-14.63673,132.68574,True,False,False,S180927345,"State Route 24, Beswick Creek NT 0852, Australia",
galah,Galah,Eolophus roseicapilla,L2540242,Central Arnhem Rd at Roper Creek,2024-06-12 17:48,4.0,-14.63673,132.68574,True,False,False,S180927345,"State Route 24, Beswick Creek NT 0852, Australia",
whikit1,Whistling Kite,Haliastur sphenurus,L2540242,Central Arnhem Rd at Roper Creek,2024-06-12 17:48,1.0,-14.63673,132.68574,True,False,False,S180927345,"State Route 24, Beswick Creek NT 0852, Australia",
runher1,Nankeen Night Heron,Nycticorax caledonicus,L2540242,Central Arnhem Rd at Roper Creek,2024-06-12 17:48,1.0,-14.63673,132.68574,True,False,False,S180927345,"State Route 24, Beswick Creek NT 0852, Australia",
bkfcus1,Black-faced Cuckooshrike,Coracina novaehollandiae,L2540242,Central Arnhem Rd at Roper Creek,2024-06-12 17:48,1.0,-14.63673,132.68574,True,False,False,S180927345,"State Route 24, Beswick Creek NT 0852, Australia",
butkne1,Bush Thick-knee,Burhinus grallarius,L33206976,"122 Dan Street, Karalee, Queensland, AU (-27.565, 152.805)",2024-06-12 17:45,1.0,-27.5649253,152.8051878,True,False,True,S180922481,"122 Dan St, Karalee QLD 4306, Australia",
lebfly3,Lemon-bellied Flyrobin,Microeca flavigaster,L1175729,Mangroves near Orchard Rd (Coconut Grove),2024-06-12 17:44,4.0,-12.396642,130.847231,True,False,False,S180927900,"21 Orchard Rd, Coconut Grove NT 0810, Australia",
beathk1,Beach Thick-knee,Esacus magnirostris,L1175729,Mangroves near Orchard Rd (Coconut Grove),2024-06-12 17:44,2.0,-12.396642,130.847231,True,False,False,S180927900,"21 Orchard Rd, Coconut Grove NT 0810, Australia",
aushob1,Australian Hobby,Falco longipennis,L1175729,Mangroves near Orchard Rd (Coconut Grove),2024-06-12 17:44,1.0,-12.396642,130.847231,True,False,False,S180927900,"21 Orchard Rd, Coconut Grove NT 0810, Australia",
sackin1,Sacred Kingfisher,Todiramphus sanctus,L1175729,Mangroves near Orchard Rd (Coconut Grove),2024-06-12 17:44,1.0,-12.396642,130.847231,True,False,False,S180927900,"21 Orchard Rd, Coconut Grove NT 0810, Australia",
manger1,Mangrove Gerygone,Gerygone levigaster,L1175729,Mangroves near Orchard Rd (Coconut Grove),2024-06-12 17:44,1.0,-12.396642,130.847231,True,False,False,S180927900,"21 Orchard Rd, Coconut Grove NT 0810, Australia",
ausrav1,Australian Raven,Corvus coronoides,L10831355,"Phoenix Road, Spearwood",2024-06-12 17:33,2.0,-32.094158,115.785864,True,False,True,S180932566,"25 Glendower Way, Spearwood WA 6163, Australia",
compea,Indian Peafowl,Pavo cristatus,L6240566,Gallet Rd,2024-06-12 17:31,1.0,-17.1184442,145.7052997,True,False,True,S180925896,"66 Gallett Rd, Little Mulgrave QLD 4865, Australia",X
weebil1,Weebill,Smicrornis brevirostris,L33212831,Paddock between Kalkarindji and Dagaragu,2024-06-12 17:30,2.0,-17.4313577,130.8282356,True,False,True,S180942357,"HR9H+F7 Kalkarindji NT, Australia",
sinbus6,Singing Bushlark,Mirafra javanica,L33212831,Paddock between Kalkarindji and Dagaragu,2024-06-12 17:30,2.0,-17.4313577,130.8282356,True,False,True,S180942357,"HR9H+F7 Kalkarindji NT, Australia",
yethon2,Yellow-tinted Honeyeater,Ptilotula flavescens,L33212831,Paddock between Kalkarindji and Dagaragu,2024-06-12 17:30,4.0,-17.4313577,130.8282356,True,False,True,S180942357,"HR9H+F7 Kalkarindji NT, Australia",
gohcis1,Golden-headed Cisticola,Cisticola exilis,L33212831,Paddock between Kalkarindji and Dagaragu,2024-06-12 17:30,7.0,-17.4313577,130.8282356,True,False,True,S180942357,"HR9H+F7 Kalkarindji NT, Australia",
spipig2,Spinifex Pigeon,Geophaps plumifera,L33212831,Paddock between Kalkarindji and Dagaragu,2024-06-12 17:30,24.0,-17.4313577,130.8282356,True,False,True,S180942357,"HR9H+F7 Kalkarindji NT, Australia",
blakit1,Black Kite,Milvus migrans,L33212831,Paddock between Kalkarindji and Dagaragu,2024-06-12 17:30,7.0,-17.4313577,130.8282356,True,False,True,S180942357,"HR9H+F7 Kalkarindji NT, Australia",
blchon2,Black-chinned Honeyeater,Melithreptus gularis,L33212831,Paddock between Kalkarindji and Dagaragu,2024-06-12 17:30,2.0,-17.4313577,130.8282356,True,False,True,S180942357,"HR9H+F7 Kalkarindji NT, Australia",
rufson1,Rufous Songlark,Cincloramphus mathewsi,L33212831,Paddock between Kalkarindji and Dagaragu,2024-06-12 17:30,1.0,-17.4313577,130.8282356,True,False,True,S180942357,"HR9H+F7 Kalkarindji NT, Australia",
faimar2,Fairy Martin,Petrochelidon ariel,L33212831,Paddock between Kalkarindji and Dagaragu,2024-06-12 17:30,,-17.4313577,130.8282356,True,False,True,S180942357,"HR9H+F7 Kalkarindji NT, Australia",
blfwoo1,Black-faced Woodswallow,Artamus cinereus,L33212831,Paddock between Kalkarindji and Dagaragu,2024-06-12 17:30,,-17.4313577,130.8282356,True,False,True,S180942357,"HR9H+F7 Kalkarindji NT, Australia",
rtbcoc1,Red-tailed Black-Cockatoo,Calyptorhynchus banksii,L33212831,Paddock between Kalkarindji and Dagaragu,2024-06-12 17:30,9.0,-17.4313577,130.8282356,True,False,True,S180942357,"HR9H+F7 Kalkarindji NT, Australia",
wilwag1,Willie-wagtail,Rhipidura leucophrys,L33212831,Paddock between Kalkarindji and Dagaragu,2024-06-12 17:30,6.0,-17.4313577,130.8282356,True,False,True,S180942357,"HR9H+F7 Kalkarindji NT, Australia",
whwtri1,White-winged Triller,Lalage tricolor,L33212831,Paddock between Kalkarindji and Dagaragu,2024-06-12 17:30,8.0,-17.4313577,130.8282356,True,False,True,S180942357,"HR9H+F7 Kalkarindji NT, Australia",
diadov1,Diamond Dove,Geopelia cuneata,L33212831,Paddock between Kalkarindji and Dagaragu,2024-06-12 17:30,5.0,-17.4313577,130.8282356,True,False,True,S180942357,"HR9H+F7 Kalkarindji NT, Australia",
broqua1,Brown Quail,Synoicus ypsilophorus,L33212831,Paddock between Kalkarindji and Dagaragu,2024-06-12 17:30,9.0,-17.4313577,130.8282356,True,False,True,S180942357,"HR9H+F7 Kalkarindji NT, Australia",
zebfin2,Zebra Finch,Taeniopygia guttata,L33212831,Paddock between Kalkarindji and Dagaragu,2024-06-12 17:30,,-17.4313577,130.8282356,True,False,True,S180942357,"HR9H+F7 Kalkarindji NT, Australia",
crepig1,Crested Pigeon,Ocyphaps lophotes,L33212831,Paddock between Kalkarindji and Dagaragu,2024-06-12 17:30,7.0,-17.4313577,130.8282356,True,False,True,S180942357,"HR9H+F7 Kalkarindji NT, Australia",
budger,Budgerigar,Melopsittacus undulatus,L33212831,Paddock between Kalkarindji and Dagaragu,2024-06-12 17:30,45.0,-17.4313577,130.8282356,True,False,True,S180942357,"HR9H+F7 Kalkarindji NT, Australia",
railor5,Rainbow Lorikeet,Trichoglossus moluccanus,L2561299,The Strand,2024-06-12 17:25,17.0,-19.24705,146.81229,True,False,False,S180923425,"79 The Strand, North Ward QLD 4810, Australia",
blfhon1,Blue-faced Honeyeater,Entomyzon cyanotis,L2561299,The Strand,2024-06-12 17:25,12.0,-19.24705,146.81229,True,False,False,S180923425,"79 The Strand, North Ward QLD 4810, Australia",
ausibi1,Australian Ibis,Threskiornis molucca,L2561299,The Strand,2024-06-12 17:25,11.0,-19.24705,146.81229,True,False,False,S180923425,"79 The Strand, North Ward QLD 4810, Australia",
ausmag2,Australian Magpie,Gymnorhina tibicen,L2561299,The Strand,2024-06-12 17:25,1.0,-19.24705,146.81229,True,False,False,S180923425,"79 The Strand, North Ward QLD 4810, Australia",
welswa1,Welcome Swallow,Hirundo neoxena,L2561299,The Strand,2024-06-12 17:25,50.0,-19.24705,146.81229,True,False,False,S180923425,"79 The Strand, North Ward QLD 4810, Australia",
houspa,House Sparrow,Passer domesticus,L2561299,The Strand,2024-06-12 17:25,2.0,-19.24705,146.81229,True,False,False,S180923425,"79 The Strand, North Ward QLD 4810, Australia",N
grcter1,Great Crested Tern,Thalasseus bergii,L2561299,The Strand,2024-06-12 17:25,1.0,-19.24705,146.81229,True,False,False,S180923425,"79 The Strand, North Ward QLD 4810, Australia",
silgul2,Silver Gull,Chroicocephalus novaehollandiae,L2561299,The Strand,2024-06-12 17:25,42.0,-19.24705,146.81229,True,False,False,S180923425,"79 The Strand, North Ward QLD 4810, Australia",
commyn,Common Myna,Acridotheres tristis,L2561299,The Strand,2024-06-12 17:25,3.0,-19.24705,146.81229,True,False,False,S180923425,"79 The Strand, North Ward QLD 4810, Australia",N
grebow1,Great Bowerbird,Chlamydera nuchalis,L2561299,The Strand,2024-06-12 17:25,1.0,-19.24705,146.81229,True,False,False,S180923425,"79 The Strand, North Ward QLD 4810, Australia",
yelhon1,Yellow Honeyeater,Stomiopera flava,L2561299,The Strand,2024-06-12 17:25,2.0,-19.24705,146.81229,True,False,False,S180923425,"79 The Strand, North Ward QLD 4810, Australia",
emu1,Emu,Dromaius novaehollandiae,L2557479,Lincoln National Park--Stamford Hill,2024-06-12 17:22,2.0,-34.77021,135.93847,True,False,False,S180923490,"6WHQ+W9 Lincoln National Park SA, Australia",
noimin1,Noisy Miner,Manorina melanocephala,L33210726,"9 Louise St, Cunnamulla AU-QLD -28.07021, 145.68135",2024-06-12 17:22,4.0,-28.070211,145.681353,True,False,True,S180931970,"10 Garden St, Cunnamulla QLD 4490, Australia",
pieoys1,Pied Oystercatcher,Haematopus longirostris,L2557479,Lincoln National Park--Stamford Hill,2024-06-12 17:22,2.0,-34.77021,135.93847,True,False,False,S180923490,"6WHQ+W9 Lincoln National Park SA, Australia",
osprey,Osprey,Pandion haliaetus,L2557479,Lincoln National Park--Stamford Hill,2024-06-12 17:22,1.0,-34.77021,135.93847,True,False,False,S180923490,"6WHQ+W9 Lincoln National Park SA, Australia",
rerpar1,Red-rumped Parrot,Psephotus haematonotus,L33210726,"9 Louise St, Cunnamulla AU-QLD -28.07021, 145.68135",2024-06-12 17:22,3.0,-28.070211,145.681353,True,False,True,S180931970,"10 Garden St, Cunnamulla QLD 4490, Australia",
colspa1,Collared Sparrowhawk,Accipiter cirrocephalus,L33210726,"9 Louise St, Cunnamulla AU-QLD -28.07021, 145.68135",2024-06-12 17:22,1.0,-28.070211,145.681353,True,False,True,S180931970,"10 Garden St, Cunnamulla QLD 4490, Australia",
manrob1,Mangrove Robin,Melanodryas pulverulenta,L1143268,Charles Darwin National Park,2024-06-12 17:20,1.0,-12.4434808,130.877037,True,False,False,S180925203,"Charles Darwin Np Access, Charles Darwin NT 0822, Australia",
whbcus1,White-bellied Cuckooshrike,Coracina papuensis,L1143268,Charles Darwin National Park,2024-06-12 17:20,2.0,-12.4434808,130.877037,True,False,False,S180925203,"Charles Darwin Np Access, Charles Darwin NT 0822, Australia",
succoc,Sulphur-crested Cockatoo,Cacatua galerita,L1143268,Charles Darwin National Park,2024-06-12 17:20,2.0,-12.4434808,130.877037,True,False,False,S180925203,"Charles Darwin Np Access, Charles Darwin NT 0822, Australia",
whthon1,White-throated Honeyeater,Melithreptus albogularis,L1143268,Charles Darwin National Park,2024-06-12 17:20,8.0,-12.4434808,130.877037,True,False,False,S180925203,"Charles Darwin Np Access, Charles Darwin NT 0822, Australia",
ruffie2,Rufous Fieldwren,Calamanthus campestris,L33208104,"Stuart Highway, Arcoona, South Australia, AU (-31.38, 136.923)",2024-06-12 17:13,1.0,-31.3799544,136.9232799,True,False,True,S180921444,4QWRJWCF+28,
pabduc1,Pacific Black Duck,Anas superciliosa,L7817345,Napier Park,2024-06-12 17:12,7.0,-37.8794669,145.1897656,True,False,False,S180922300,"1000 High St Rd, Glen Waverley VIC 3150, Australia",
ruthon1,Rufous-throated Honeyeater,Conopophila rufogularis,L2540255,"Central Arnhem Rd at -14.60250, 132.71172",2024-06-12 17:11,1.0,-14.6025,132.71172,True,False,False,S180927433,"State Route 24, Beswick Creek NT 0852, Australia",
phecou2,Pheasant Coucal,Centropus phasianinus,L2540255,"Central Arnhem Rd at -14.60250, 132.71172",2024-06-12 17:11,1.0,-14.6025,132.71172,True,False,False,S180927433,"State Route 24, Beswick Creek NT 0852, Australia",
maglar1,Magpie-lark,Grallina cyanoleuca,L2532139,Windorah Nature Trail,2024-06-12 17:10,4.0,-25.41833,142.67361,True,False,False,S180932748,5R64HMJF+MC,
spohar1,Spotted Harrier,Circus assimilis,L27222309,Seacomb Road,2024-06-12 17:10,1.0,-34.5888418,138.5268296,True,False,True,S180922048,"14 Magnolia Bvd, Two Wells SA 5501, Australia",
jacwin1,Jacky-winter,Microeca fascinans,L2532139,Windorah Nature Trail,2024-06-12 17:10,1.0,-25.41833,142.67361,True,False,False,S180932748,5R64HMJF+MC,
piebut1,Pied Butcherbird,Cracticus nigrogularis,L2532139,Windorah Nature Trail,2024-06-12 17:10,2.0,-25.41833,142.67361,True,False,False,S180932748,5R64HMJF+MC,
auspel1,Australian Pelican,Pelecanus conspicillatus,L2532139,Windorah Nature Trail,2024-06-12 17:10,1.0,-25.41833,142.67361,True,False,False,S180932748,5R64HMJF+MC,
blkswa,Black Swan,Cygnus atratus,L984423,Lake Alford Park (Gympie),2024-06-12 17:09,12.0,-26.2147,152.68462,True,False,False,S180929803,"213 Brisbane Rd, Monkland QLD 4570, Australia",
categr2,Eastern Cattle Egret,Bubulcus coromandus,L984423,Lake Alford Park (Gympie),2024-06-12 17:09,6.0,-26.2147,152.68462,True,False,False,S180929803,"213 Brisbane Rd, Monkland QLD 4570, Australia",
musduc,Muscovy Duck,Cairina moschata,L984423,Lake Alford Park (Gympie),2024-06-12 17:09,2.0,-26.2147,152.68462,True,False,False,S180929803,"213 Brisbane Rd, Monkland QLD 4570, Australia",X
maggoo1,Magpie Goose,Anseranas semipalmata,L984423,Lake Alford Park (Gympie),2024-06-12 17:09,15.0,-26.2147,152.68462,True,False,False,S180929803,"213 Brisbane Rd, Monkland QLD 4570, Australia",
torcro2,Torresian Crow,Corvus orru,L984423,Lake Alford Park (Gympie),2024-06-12 17:09,2.0,-26.2147,152.68462,True,False,False,S180929803,"213 Brisbane Rd, Monkland QLD 4570, Australia",
wheduc1,Hardhead,Aythya australis,L984423,Lake Alford Park (Gympie),2024-06-12 17:09,1.0,-26.2147,152.68462,True,False,False,S180929803,"213 Brisbane Rd, Monkland QLD 4570, Australia",
libcor1,Little Black Cormorant,Phalacrocorax sulcirostris,L984423,Lake Alford Park (Gympie),2024-06-12 17:09,15.0,-26.2147,152.68462,True,False,False,S180929803,"213 Brisbane Rd, Monkland QLD 4570, Australia",
lipcor1,Little Pied Cormorant,Microcarbo melanoleucos,L984423,Lake Alford Park (Gympie),2024-06-12 17:09,5.0,-26.2147,152.68462,True,False,False,S180929803,"213 Brisbane Rd, Monkland QLD 4570, Australia",
manduc1,Maned Duck,Chenonetta jubata,L984423,Lake Alford Park (Gympie),2024-06-12 17:09,2.0,-26.2147,152.68462,True,False,False,S180929803,"213 Brisbane Rd, Monkland QLD 4570, Australia",
dusmoo1,Dusky Moorhen,Gallinula tenebrosa,L984423,Lake Alford Park (Gympie),2024-06-12 17:09,75.0,-26.2147,152.68462,True,False,False,S180929803,"213 Brisbane Rd, Monkland QLD 4570, Australia",
mallar3,Mallard,Anas platyrhynchos,L984423,Lake Alford Park (Gympie),2024-06-12 17:09,2.0,-26.2147,152.68462,True,False,False,S180929803,"213 Brisbane Rd, Monkland QLD 4570, Australia",X
darter4,Australasian Darter,Anhinga novaehollandiae,L984423,Lake Alford Park (Gympie),2024-06-12 17:09,2.0,-26.2147,152.68462,True,False,False,S180929803,"213 Brisbane Rd, Monkland QLD 4570, Australia",
labger1,Large-billed Gerygone,Gerygone magnirostris,L1175729,Mangroves near Orchard Rd (Coconut Grove),2024-06-12 17:07,2.0,-12.396642,130.847231,True,False,False,S180925002,"21 Orchard Rd, Coconut Grove NT 0810, Australia",
laukoo1,Laughing Kookaburra,Dacelo novaeguineae,L1486336,Port Douglas,2024-06-12 17:07,1.0,-16.4827421,145.4641479,True,False,False,S180920393,"27 Macrossan St, Port Douglas QLD 4877, Australia",
easros1,Eastern Rosella,Platycercus eximius,L25178807,285 Cedar Ridge Road Kurrajong (Private Property),2024-06-12 17:07,2.0,-33.481278,150.699726,True,False,True,S180919236,"285 Cedar Ridge Rd, Kurrajong NSW 2758, Australia",
rufwhi1,Rufous Whistler,Pachycephala rufiventris,L4976757,Valley of Lagoons,2024-06-12 17:05,1.0,-18.8947259,145.5658865,True,False,False,S180922850,5RH74H48+49,
gryfan1,Gray Fantail,Rhipidura albiscapa,L4976757,Valley of Lagoons,2024-06-12 17:05,5.0,-18.8947259,145.5658865,True,False,False,S180922850,5RH74H48+49,
combro1,Common Bronzewing,Phaps chalcoptera,L4976757,Valley of Lagoons,2024-06-12 17:05,5.0,-18.8947259,145.5658865,True,False,False,S180922850,5RH74H48+49,
blfdot1,Black-fronted Dotterel,Charadrius melanops,L4976757,Valley of Lagoons,2024-06-12 17:05,1.0,-18.8947259,145.5658865,True,False,False,S180922850,5RH74H48+49,
piecur1,Pied Currawong,Strepera graculina,L4976757,Valley of Lagoons,2024-06-12 17:05,1.0,-18.8947259,145.5658865,True,False,False,S180922850,5RH74H48+49,
whphon1,White-plumed Honeyeater,Ptilotula penicillata,L3131209,"Apex Riverside Park Campground, Longreach",2024-06-12 17:04,4.0,-23.410878,144.2296314,True,False,False,S180922387,"Apex Riverside Park, LOT 206 Landsborough Hwy, Longreach QLD 4730, Australia",
redjun,Red Junglefowl,Gallus gallus,L3131209,"Apex Riverside Park Campground, Longreach",2024-06-12 17:04,14.0,-23.410878,144.2296314,True,True,False,S180922387,"Apex Riverside Park, LOT 206 Landsborough Hwy, Longreach QLD 4730, Australia",X
ytbcoc1,Yellow-tailed Black-Cockatoo,Zanda funerea,L10941485,"65 Dundundra Drive, Clifton Springs AU-VIC (-38.1551,144.5748)",2024-06-12 17:03,18.0,-38.155141,144.574799,True,False,True,S180918854,"67 Dundundra Dr, Clifton Springs VIC 3222, Australia",
eurcoo,Eurasian Coot,Fulica atra,L984423,Lake Alford Park (Gympie),2024-06-12 17:02,2.0,-26.2147,152.68462,True,False,False,S180929412,"213 Brisbane Rd, Monkland QLD 4570, Australia",
pacreh1,Pacific Reef-Heron,Egretta sacra,L3249529,Darnley Island,2024-06-12 17:02,1.0,-9.5974706,143.7603682,True,False,False,S180921930,"CQ36+3H, Erub Island QLD 4875, Australia",
eutspa,Eurasian Tree Sparrow,Passer montanus,L3249529,Darnley Island,2024-06-12 17:02,7.0,-9.5974706,143.7603682,True,False,False,S180921930,"CQ36+3H, Erub Island QLD 4875, Australia",P
asbwhe1,Ashy-bellied White-eye,Zosterops citrinella,L3249529,Darnley Island,2024-06-12 17:02,5.0,-9.5974706,143.7603682,True,False,False,S180921930,"CQ36+3H, Erub Island QLD 4875, Australia",
supfai1,Superb Fairywren,Malurus cyaneus,L20957691,Tarneit Lakes,2024-06-12 17:00,2.0,-37.845772,144.6865954,True,False,True,S180921000,"Tarneit Lakes, 25 Rippleside Terrace, Tarneit VIC 3029, Australia",
litrav1,Little Raven,Corvus mellori,L20957691,Tarneit Lakes,2024-06-12 17:00,14.0,-37.845772,144.6865954,True,False,True,S180921000,"Tarneit Lakes, 25 Rippleside Terrace, Tarneit VIC 3029, Australia",
redwat1,Red Wattlebird,Anthochaera carunculata,L20957691,Tarneit Lakes,2024-06-12 17:00,2.0,-37.845772,144.6865954,True,False,True,S180921000,"Tarneit Lakes, 25 Rippleside Terrace, Tarneit VIC 3029, Australia",
eurbla,Eurasian Blackbird,Turdus merula,L20957691,Tarneit Lakes,2024-06-12 17:00,1.0,-37.845772,144.6865954,True,False,True,S180921000,"Tarneit Lakes, 25 Rippleside Terrace, Tarneit VIC 3029, Australia",N
auskit1,Black-shouldered Kite,Elanus axillaris,L20957691,Tarneit Lakes,2024-06-12 17:00,2.0,-37.845772,144.6865954,True,False,True,S180921000,"Tarneit Lakes, 25 Rippleside Terrace, Tarneit VIC 3029, Australia",
rocpig,Rock Pigeon,Columba livia,L20957691,Tarneit Lakes,2024-06-12 17:00,2.0,-37.845772,144.6865954,True,False,True,S180921000,"Tarneit Lakes, 25 Rippleside Terrace, Tarneit VIC 3029, Australia",N
whfher1,White-faced Heron,Egretta novaehollandiae,L20957691,Tarneit Lakes,2024-06-12 17:00,1.0,-37.845772,144.6865954,True,False,True,S180921000,"Tarneit Lakes, 25 Rippleside Terrace, Tarneit VIC 3029, Australia",
purswa6,Australasian Swamphen,Porphyrio melanotus,L20957691,Tarneit Lakes,2024-06-12 17:00,13.0,-37.845772,144.6865954,True,False,True,S180921000,"Tarneit Lakes, 25 Rippleside Terrace, Tarneit VIC 3029, Australia",
chetea1,Chestnut Teal,Anas castanea,L20957691,Tarneit Lakes,2024-06-12 17:00,3.0,-37.845772,144.6865954,True,False,True,S180921000,"Tarneit Lakes, 25 Rippleside Terrace, Tarneit VIC 3029, Australia",
whwcho1,White-winged Chough,Corcorax melanorhamphos,L33208015,"106 Rouse St, Tenterfield AU-NSW -29.06118, 152.01745",2024-06-12 17:00,2.0,-29.061182,152.017447,True,False,True,S180921085,"34 Clive St, Tenterfield NSW 2372, Australia",
nehhon2,New Holland Honeyeater,Phylidonyris novaehollandiae,L20957691,Tarneit Lakes,2024-06-12 17:00,2.0,-37.845772,144.6865954,True,False,True,S180921000,"Tarneit Lakes, 25 Rippleside Terrace, Tarneit VIC 3029, Australia",
whbscr1,White-browed Scrubwren,Sericornis frontalis,L1206398,Mount Compass Wetlands,2024-06-12 16:59,1.0,-35.3524671,138.6203639,True,False,False,S180941166,"Mount Compass School Swamp, 3 School Rd, Mount Compass SA 5210, Australia",
eursta,European Starling,Sturnus vulgaris,L1206398,Mount Compass Wetlands,2024-06-12 16:59,4.0,-35.3524671,138.6203639,True,False,False,S180941166,"Mount Compass School Swamp, 3 School Rd, Mount Compass SA 5210, Australia",N
criros2,Crimson Rosella,Platycercus elegans,L1206398,Mount Compass Wetlands,2024-06-12 16:59,2.0,-35.3524671,138.6203639,True,False,False,S180941166,"Mount Compass School Swamp, 3 School Rd, Mount Compass SA 5210, Australia",
souemu1,Southern Emuwren,Stipiturus malachurus,L1206398,Mount Compass Wetlands,2024-06-12 16:59,2.0,-35.3524671,138.6203639,True,False,False,S180941166,"Mount Compass School Swamp, 3 School Rd, Mount Compass SA 5210, Australia",
silver3,Silvereye,Zosterops lateralis,L1206398,Mount Compass Wetlands,2024-06-12 16:59,2.0,-35.3524671,138.6203639,True,False,False,S180941166,"Mount Compass School Swamp, 3 School Rd, Mount Compass SA 5210, Australia",
pinrob1,Pink Robin,Petroica rodinogaster,L2548379,Pipeline Track--Clegg Rd,2024-06-12 16:58,1.0,-42.92312,147.25336,True,False,False,S180918850,"16 Clegg Rd, Fern Tree TAS 7054, Australia",
crehon2,Crescent Honeyeater,Phylidonyris pyrrhopterus,L2548379,Pipeline Track--Clegg Rd,2024-06-12 16:58,2.0,-42.92312,147.25336,True,False,False,S180918850,"16 Clegg Rd, Fern Tree TAS 7054, Australia",
brotho1,Brown Thornbill,Acanthiza pusilla,L2548379,Pipeline Track--Clegg Rd,2024-06-12 16:58,1.0,-42.92312,147.25336,True,False,False,S180918850,"16 Clegg Rd, Fern Tree TAS 7054, Australia",
blacur2,Black Currawong,Strepera fuliginosa,L2548379,Pipeline Track--Clegg Rd,2024-06-12 16:58,1.0,-42.92312,147.25336,True,False,False,S180918850,"16 Clegg Rd, Fern Tree TAS 7054, Australia",
strpar1,Striated Pardalote,Pardalotus striatus,L20684608,Oma Waterhole (Isisford),2024-06-12 16:54,1.0,-24.287135,144.3300241,True,False,False,S180918717,5R76P87J+42,
yetmin1,Yellow-throated Miner,Manorina flavigula,L20684608,Oma Waterhole (Isisford),2024-06-12 16:54,10.0,-24.287135,144.3300241,True,False,False,S180918717,5R76P87J+42,
rebkin2,Red-backed Kingfisher,Todiramphus pyrrhopygius,L20684608,Oma Waterhole (Isisford),2024-06-12 16:54,1.0,-24.287135,144.3300241,True,False,False,S180918717,5R76P87J+42,
gycbab1,Gray-crowned Babbler,Pomatostomus temporalis,L20684608,Oma Waterhole (Isisford),2024-06-12 16:54,3.0,-24.287135,144.3300241,True,False,False,S180918717,5R76P87J+42,
varfai1,Purple-backed Fairywren,Malurus assimilis,L20684608,Oma Waterhole (Isisford),2024-06-12 16:54,2.0,-24.287135,144.3300241,True,False,False,S180918717,5R76P87J+42,
suppar1,Superb Parrot,Polytelis swainsonii,L15047140,Village Creek at Athllon Dr (Greenway),2024-06-12 16:50,17.0,-35.3982242,149.0689012,True,False,False,S180920638,"Lakeview Gardens, 25 Pinkerton Cct, Kambah ACT 2902, Australia",
tanhen1,Tasmanian Nativehen,Tribonyx mortierii,L33207342,"6422–6458 Arthur Hwy, Port Arthur AU-TAS -43.10615, 147.86350",2024-06-12 16:48,6.0,-43.106153,147.863497,True,False,True,S180918363,"6555 Arthur Hwy, Port Arthur TAS 7182, Australia",
gretea1,Gray Teal,Anas gracilis,L33207342,"6422–6458 Arthur Hwy, Port Arthur AU-TAS -43.10615, 147.86350",2024-06-12 16:48,12.0,-43.106153,147.863497,True,False,True,S180918363,"6555 Arthur Hwy, Port Arthur TAS 7182, Australia",
grybut1,Gray Butcherbird,Cracticus torquatus,L7279250,Toohey Mountain,2024-06-12 16:46,1.0,-27.537539,153.037368,True,False,False,S180919912,"524 Tarragindi Rd, Salisbury QLD 4107, Australia",
ausbrt1,Australian Brushturkey,Alectura lathami,L7279250,Toohey Mountain,2024-06-12 16:46,3.0,-27.537539,153.037368,True,False,False,S180919912,"524 Tarragindi Rd, Salisbury QLD 4107, Australia",
whbbab3,White-browed Babbler,Pomatostomus superciliosus,L33213459,"Great Northern Hwy, Mount Magnet AU-WA -28.16138, 117.86651",2024-06-12 16:44,3.0,-28.161384,117.86651,True,False,True,S180944611,"RVQ8+CJ Mount Magnet WA, Australia",
slbtho1,Slaty-backed Thornbill,Acanthiza robustirostris,L33213459,"Great Northern Hwy, Mount Magnet AU-WA -28.16138, 117.86651",2024-06-12 16:44,6.0,-28.161384,117.86651,True,False,True,S180944611,"RVQ8+CJ Mount Magnet WA, Australia",
sinhon1,Singing Honeyeater,Gavicalis virescens,L33213459,"Great Northern Hwy, Mount Magnet AU-WA -28.16138, 117.86651",2024-06-12 16:44,1.0,-28.161384,117.86651,True,False,True,S180944611,"RVQ8+CJ Mount Magnet WA, Australia",
recrob1,Red-capped Robin,Petroica goodenovii,L33213459,"Great Northern Hwy, Mount Magnet AU-WA -28.16138, 117.86651",2024-06-12 16:44,2.0,-28.161384,117.86651,True,False,True,S180944611,"RVQ8+CJ Mount Magnet WA, Australia",
chrtho1,Chestnut-rumped Thornbill,Acanthiza uropygialis,L33213459,"Great Northern Hwy, Mount Magnet AU-WA -28.16138, 117.86651",2024-06-12 16:44,2.0,-28.161384,117.86651,True,False,True,S180944611,"RVQ8+CJ Mount Magnet WA, Australia",
polpar1,Australian Ringneck,Barnardius zonarius,L33213459,"Great Northern Hwy, Mount Magnet AU-WA -28.16138, 117.86651",2024-06-12 16:44,2.0,-28.161384,117.86651,True,False,True,S180944611,"RVQ8+CJ Mount Magnet WA, Australia",
crebel1,Crested Bellbird,Oreoica gutturalis,L33213459,"Great Northern Hwy, Mount Magnet AU-WA -28.16138, 117.86651",2024-06-12 16:44,2.0,-28.161384,117.86651,True,False,True,S180944611,"RVQ8+CJ Mount Magnet WA, Australia",
cabgoo1,Cape Barren Goose,Cereopsis novaehollandiae,L33207592,"1115-1123 Lincoln Highway, North Shields, South Australia, AU (-34,619, 135,868)",2024-06-12 16:43,13.0,-34.6190346,135.8678177,True,False,True,S180919552,"1115-1123 Lincoln Hwy, North Shields SA 5607, Australia",
muslor1,Musk Lorikeet,Glossopsitta concinna,L33207208,Discovery Parks Moama,2024-06-12 16:40,60.0,-36.1039007,144.7285998,True,True,True,S180917788,"80 Merool Rd, Moama NSW 2731, Australia",
whttre3,White-throated Treecreeper,Cormobates leucophaea,L2477531,"Lake Sambell, Beechworth",2024-06-12 16:39,1.0,-36.359857,146.695551,True,False,False,S180918882,"5 Kraus Ln, Beechworth VIC 3747, Australia",
mistle1,Mistletoebird,Dicaeum hirundinaceum,L33209091,"Welsh Drive, Newman, Western Australia, AU (-23.369, 119.723)",2024-06-12 16:39,1.0,-23.3694991,119.7230542,True,False,True,S180925629,5P8XJPJF+66,
spchon1,Spiny-cheeked Honeyeater,Acanthagenys rufogularis,L33209091,"Welsh Drive, Newman, Western Australia, AU (-23.369, 119.723)",2024-06-12 16:39,1.0,-23.3694991,119.7230542,True,False,True,S180925629,5P8XJPJF+66,
paifir1,Painted Firetail,Emblema pictum,L33209091,"Welsh Drive, Newman, Western Australia, AU (-23.369, 119.723)",2024-06-12 16:39,1.0,-23.3694991,119.7230542,True,False,True,S180925629,5P8XJPJF+66,
satbow1,Satin Bowerbird,Ptilonorhynchus violaceus,L2477531,"Lake Sambell, Beechworth",2024-06-12 16:39,2.0,-36.359857,146.695551,True,False,False,S180918882,"5 Kraus Ln, Beechworth VIC 3747, Australia",
easspi1,Eastern Spinebill,Acanthorhynchus tenuirostris,L2477531,"Lake Sambell, Beechworth",2024-06-12 16:39,1.0,-36.359857,146.695551,True,False,False,S180918882,"5 Kraus Ln, Beechworth VIC 3747, Australia",
spibir1,Spinifexbird,Poodytes carteri,L33209091,"Welsh Drive, Newman, Western Australia, AU (-23.369, 119.723)",2024-06-12 16:39,1.0,-23.3694991,119.7230542,True,False,True,S180925629,5P8XJPJF+66,
gyhhon1,Gray-headed Honeyeater,Ptilotula keartlandi,L33209091,"Welsh Drive, Newman, Western Australia, AU (-23.369, 119.723)",2024-06-12 16:39,4.0,-23.3694991,119.7230542,True,False,True,S180925629,5P8XJPJF+66,
gloibi,Glossy Ibis,Plegadis falcinellus,L33209787,"154 Walker Street, Karumba, Queensland, AU (-17.485, 140.841)",2024-06-12 16:37,2.0,-17.4848715,140.8409673,True,False,True,S180928144,"154 Walker St, Karumba QLD 4891, Australia",
blnsto1,Black-necked Stork,Ephippiorhynchus asiaticus,L33209787,"154 Walker Street, Karumba, Queensland, AU (-17.485, 140.841)",2024-06-12 16:37,1.0,-17.4848715,140.8409673,True,False,True,S180928144,"154 Walker St, Karumba QLD 4891, Australia",
stnibi1,Straw-necked Ibis,Threskiornis spinicollis,L33209787,"154 Walker Street, Karumba, Queensland, AU (-17.485, 140.841)",2024-06-12 16:37,3.0,-17.4848715,140.8409673,True,False,True,S180928144,"154 Walker St, Karumba QLD 4891, Australia",
ausgre1,Australasian Grebe,Tachybaptus novaehollandiae,L33209787,"154 Walker Street, Karumba, Queensland, AU (-17.485, 140.841)",2024-06-12 16:37,2.0,-17.4848715,140.8409673,True,False,True,S180928144,"154 Walker St, Karumba QLD 4891, Australia",
auspip2,Australian Pipit,Anthus australis,L33209787,"154 Walker Street, Karumba, Queensland, AU (-17.485, 140.841)",2024-06-12 16:37,2.0,-17.4848715,140.8409673,True,False,True,S180928144,"154 Walker St, Karumba QLD 4891, Australia",
piesti1,Pied Stilt,Himantopus leucocephalus,L33209787,"154 Walker Street, Karumba, Queensland, AU (-17.485, 140.841)",2024-06-12 16:37,3.0,-17.4848715,140.8409673,True,False,True,S180928144,"154 Walker St, Karumba QLD 4891, Australia",
auspra1,Australian Pratincole,Stiltia isabella,L33209787,"154 Walker Street, Karumba, Queensland, AU (-17.485, 140.841)",2024-06-12 16:37,5.0,-17.4848715,140.8409673,True,False,True,S180928144,"154 Walker St, Karumba QLD 4891, Australia",
wbseag1,White-bellied Sea-Eagle,Icthyophaga leucogaster,L33209787,"154 Walker Street, Karumba, Queensland, AU (-17.485, 140.841)",2024-06-12 16:37,1.0,-17.4848715,140.8409673,True,False,True,S180928144,"154 Walker St, Karumba QLD 4891, Australia",
stafin1,Star Finch,Bathilda ruficauda,L33209787,"154 Walker Street, Karumba, Queensland, AU (-17.485, 140.841)",2024-06-12 16:37,5.0,-17.4848715,140.8409673,True,False,True,S180928144,"154 Walker St, Karumba QLD 4891, Australia",
brolga1,Brolga,Antigone rubicunda,L33209787,"154 Walker Street, Karumba, Queensland, AU (-17.485, 140.841)",2024-06-12 16:37,1.0,-17.4848715,140.8409673,True,False,True,S180928144,"154 Walker St, Karumba QLD 4891, Australia",
grocus1,Ground Cuckooshrike,Coracina maxima,L33209787,"154 Walker Street, Karumba, Queensland, AU (-17.485, 140.841)",2024-06-12 16:37,5.0,-17.4848715,140.8409673,True,False,True,S180928144,"154 Walker St, Karumba QLD 4891, Australia",
flobro1,Flock Bronzewing,Phaps histrionica,L33209787,"154 Walker Street, Karumba, Queensland, AU (-17.485, 140.841)",2024-06-12 16:37,2.0,-17.4848715,140.8409673,True,False,True,S180928144,"154 Walker St, Karumba QLD 4891, Australia",
forkin1,Forest Kingfisher,Todiramphus macleayii,L33209787,"154 Walker Street, Karumba, Queensland, AU (-17.485, 140.841)",2024-06-12 16:37,1.0,-17.4848715,140.8409673,True,False,True,S180928144,"154 Walker St, Karumba QLD 4891, Australia",
grysht1,Gray Shrikethrush,Colluricincla harmonica,L2562417,Santa Teresa Rd at 23 51 56S 133 59 10E,2024-06-12 16:36,1.0,-23.86567,133.98622,True,False,False,S180932450,5Q8M4XMP+PF,
auskes1,Nankeen Kestrel,Falco cenchroides,L2562417,Santa Teresa Rd at 23 51 56S 133 59 10E,2024-06-12 16:36,2.0,-23.86567,133.98622,True,False,False,S180932450,5Q8M4XMP+PF,
cockat,Cockatiel,Nymphicus hollandicus,L2562417,Santa Teresa Rd at 23 51 56S 133 59 10E,2024-06-12 16:36,30.0,-23.86567,133.98622,True,False,False,S180932450,5Q8M4XMP+PF,
whbtre2,White-browed Treecreeper,Climacteris affinis,L2562417,Santa Teresa Rd at 23 51 56S 133 59 10E,2024-06-12 16:36,2.0,-23.86567,133.98622,True,False,False,S180932450,5Q8M4XMP+PF,
mulpar1,Mulga Parrot,Psephotellus varius,L2562417,Santa Teresa Rd at 23 51 56S 133 59 10E,2024-06-12 16:36,4.0,-23.86567,133.98622,True,False,False,S180932450,5Q8M4XMP+PF,
souwhi1,Southern Whiteface,Aphelocephala leucopsis,L2562417,Santa Teresa Rd at 23 51 56S 133 59 10E,2024-06-12 16:36,2.0,-23.86567,133.98622,True,False,False,S180932450,5Q8M4XMP+PF,
lobcor1,Long-billed Corella,Cacatua tenuirostris,L13482779,Woods Street Playing Fields,2024-06-12 16:35,3.0,-31.4245968,152.8808538,True,False,False,S180920190,"26 Woods St, Port Macquarie NSW 2444, Australia",N
litcor2,Little Corella,Cacatua sanguinea,L13482779,Woods Street Playing Fields,2024-06-12 16:35,110.0,-31.4245968,152.8808538,True,False,False,S180920190,"26 Woods St, Port Macquarie NSW 2444, Australia",
liteag1,Little Eagle,Hieraaetus morphnoides,L26129056,"Northgate Promenade, Bushmead, Western Australia, AU (-31.926, 116.027)",2024-06-12 16:34,1.0,-31.9264147,116.0274308,True,False,True,S180924289,"Cnr Archerfield Parkway and, Northgate Promenade, Bushmead WA 6055, Australia",
spodov,Spotted Dove,Spilopelia chinensis,L9282488,Hale School,2024-06-12 16:34,1.0,-31.9102838,115.7818521,True,False,False,S180926037,"Hale School, 160 Hale Rd, Wembley Downs WA 6019, Australia",N
spopar1,Spotted Pardalote,Pardalotus punctatus,L9282488,Hale School,2024-06-12 16:34,1.0,-31.9102838,115.7818521,True,False,False,S180926037,"Hale School, 160 Hale Rd, Wembley Downs WA 6019, Australia",
ausshe1,Australian Shelduck,Tadorna tadornoides,L9282488,Hale School,2024-06-12 16:34,1.0,-31.9102838,115.7818521,True,False,False,S180926037,"Hale School, 160 Hale Rd, Wembley Downs WA 6019, Australia",
wesspi1,Western Spinebill,Acanthorhynchus superciliosus,L9282488,Hale School,2024-06-12 16:34,1.0,-31.9102838,115.7818521,True,False,False,S180926037,"Hale School, 160 Hale Rd, Wembley Downs WA 6019, Australia",
spocat2,Spotted Catbird,Ailuroedus maculosus,L6240566,Gallet Rd,2024-06-12 16:32,1.0,-17.1184442,145.7052997,True,False,True,S180926178,"66 Gallett Rd, Little Mulgrave QLD 4865, Australia",
defpar1,Double-eyed Fig-Parrot,Cyclopsitta diophthalma,L6240566,Gallet Rd,2024-06-12 16:32,2.0,-17.1184442,145.7052997,True,False,True,S180926178,"66 Gallett Rd, Little Mulgrave QLD 4865, Australia",
payrob1,Pale-yellow Robin,Eopsaltria capito,L6240566,Gallet Rd,2024-06-12 16:32,1.0,-17.1184442,145.7052997,True,False,True,S180926178,"66 Gallett Rd, Little Mulgrave QLD 4865, Australia",
wofdov1,Wompoo Fruit-Dove,Ptilinopus magnificus,L6240566,Gallet Rd,2024-06-12 16:32,1.0,-17.1184442,145.7052997,True,False,True,S180926178,"66 Gallett Rd, Little Mulgrave QLD 4865, Australia",
ruffan13,Australian Rufous Fantail,Rhipidura rufifrons,L6240566,Gallet Rd,2024-06-12 16:32,1.0,-17.1184442,145.7052997,True,False,True,S180926178,"66 Gallett Rd, Little Mulgrave QLD 4865, Australia",
strtho1,Striated Thornbill,Acanthiza lineata,L27000290,Owl Land Bushland Reserve (Mount Evelyn),2024-06-12 16:32,5.0,-37.773796,145.37921,True,False,False,S180918343,"Owl Land Reserve, 99A Hereford Rd, Mount Evelyn VIC 3796, Australia",
yebboa1,Yellow-breasted Boatbill,Machaerirhynchus flaviventer,L6240566,Gallet Rd,2024-06-12 16:32,1.0,-17.1184442,145.7052997,True,False,True,S180926178,"66 Gallett Rd, Little Mulgrave QLD 4865, Australia",
faiger1,Fairy Gerygone,Gerygone palpebrosa,L6240566,Gallet Rd,2024-06-12 16:32,2.0,-17.1184442,145.7052997,True,False,True,S180926178,"66 Gallett Rd, Little Mulgrave QLD 4865, Australia",
spemon1,Spectacled Monarch,Symposiachrus trivirgatus,L6240566,Gallet Rd,2024-06-12 16:32,2.0,-17.1184442,145.7052997,True,False,True,S180926178,"66 Gallett Rd, Little Mulgrave QLD 4865, Australia",
grahon5,Cryptic Honeyeater,Microptilotis imitatrix,L6240566,Gallet Rd,2024-06-12 16:32,2.0,-17.1184442,145.7052997,True,False,True,S180926178,"66 Gallett Rd, Little Mulgrave QLD 4865, Australia",
yeshon1,Yellow-spotted Honeyeater,Meliphaga notata,L6240566,Gallet Rd,2024-06-12 16:32,1.0,-17.1184442,145.7052997,True,False,True,S180926178,"66 Gallett Rd, Little Mulgrave QLD 4865, Australia",
scblor1,Scaly-breasted Lorikeet,Trichoglossus chlorolepidotus,L24652784,Chancellor’s Place UQ,2024-06-12 16:32,4.0,-27.498149,153.011069,True,False,True,S180917350,"University of Queensland, St Lucia QLD 4067, Australia",
grywhi2,Gray Whistler,Pachycephala simplex,L6240566,Gallet Rd,2024-06-12 16:32,3.0,-17.1184442,145.7052997,True,False,True,S180926178,"66 Gallett Rd, Little Mulgrave QLD 4865, Australia",
aukpar1,Australian King-Parrot,Alisterus scapularis,L27000290,Owl Land Bushland Reserve (Mount Evelyn),2024-06-12 16:32,3.0,-37.773796,145.37921,True,False,False,S180918343,"Owl Land Reserve, 99A Hereford Rd, Mount Evelyn VIC 3796, Australia",
labscr2,Large-billed Scrubwren,Sericornis magnirostra,L6240566,Gallet Rd,2024-06-12 16:32,2.0,-17.1184442,145.7052997,True,False,True,S180926178,"66 Gallett Rd, Little Mulgrave QLD 4865, Australia",
machon2,Macleay's Honeyeater,Xanthotis macleayanus,L6240566,Gallet Rd,2024-06-12 16:32,1.0,-17.1184442,145.7052997,True,False,True,S180926178,"66 Gallett Rd, Little Mulgrave QLD 4865, Australia",
lovfai1,Lovely Fairywren,Malurus amabilis,L6240566,Gallet Rd,2024-06-12 16:32,3.0,-17.1184442,145.7052997,True,False,True,S180926178,"66 Gallett Rd, Little Mulgrave QLD 4865, Australia",
litshr2,Rufous Shrikethrush,Colluricincla rufogaster,L6240566,Gallet Rd,2024-06-12 16:32,4.0,-17.1184442,145.7052997,True,False,True,S180926178,"66 Gallett Rd, Little Mulgrave QLD 4865, Australia",
brogos1,Brown Goshawk,Accipiter fasciatus,L1764201,Knuckey Lagoons CR--Fiddlers Ln,2024-06-12 16:30,1.0,-12.429494,130.945787,True,False,False,S180920518,"HWCW+68 Knuckey Lagoon NT, Australia",
pacher1,Pacific Heron,Ardea pacifica,L1764201,Knuckey Lagoons CR--Fiddlers Ln,2024-06-12 16:30,1.0,-12.429494,130.945787,True,False,False,S180920518,"HWCW+68 Knuckey Lagoon NT, Australia",
cocjac1,Comb-crested Jacana,Irediparra gallinacea,L1764201,Knuckey Lagoons CR--Fiddlers Ln,2024-06-12 16:30,8.0,-12.429494,130.945787,True,False,False,S180920518,"HWCW+68 Knuckey Lagoon NT, Australia",
bubrai1,Buff-banded Rail,Gallirallus philippensis,L1764201,Knuckey Lagoons CR--Fiddlers Ln,2024-06-12 16:30,2.0,-12.429494,130.945787,True,False,False,S180920518,"HWCW+68 Knuckey Lagoon NT, Australia",
integr2,Plumed Egret,Ardea plumifera,L1764201,Knuckey Lagoons CR--Fiddlers Ln,2024-06-12 16:30,10.0,-12.429494,130.945787,True,False,False,S180920518,"HWCW+68 Knuckey Lagoon NT, Australia",
greegr,Great Egret,Ardea alba,L1764201,Knuckey Lagoons CR--Fiddlers Ln,2024-06-12 16:30,1.0,-12.429494,130.945787,True,False,False,S180920518,"HWCW+68 Knuckey Lagoon NT, Australia",
ausbus1,Australian Bustard,Ardeotis australis,L33207411,"Jimbour Station Road, Cattle Creek Crossing",2024-06-12 16:27,2.0,-27.0027261,151.3002073,True,False,True,S180918734,"X8W2+W3 Pirrinuan QLD, Australia",
strfie1,Striated Fieldwren,Calamanthus fuliginosus,L33207760,"Rushy Lagoon, Tasmania, AU (-40.851, 147.959)",2024-06-12 16:26,2.0,-40.8513698,147.9586583,True,False,True,S180920123,"4XX5+FF Rushy Lagoon TAS, Australia",
flarob1,Flame Robin,Petroica phoenicea,L33207760,"Rushy Lagoon, Tasmania, AU (-40.851, 147.959)",2024-06-12 16:26,6.0,-40.8513698,147.9586583,True,False,True,S180920123,"4XX5+FF Rushy Lagoon TAS, Australia",
whfcha1,White-fronted Chat,Epthianura albifrons,L33207760,"Rushy Lagoon, Tasmania, AU (-40.851, 147.959)",2024-06-12 16:26,7.0,-40.8513698,147.9586583,True,False,True,S180920123,"4XX5+FF Rushy Lagoon TAS, Australia",
scarob2,Scarlet Robin,Petroica boodang,L932079,Mount Painter Nature Reserve,2024-06-12 16:25,1.0,-35.2683272,149.0625,True,False,False,S180920821,"P3J6+MX Cook ACT, Australia",
yertho1,Yellow-rumped Thornbill,Acanthiza chrysorrhoa,L932079,Mount Painter Nature Reserve,2024-06-12 16:25,20.0,-35.2683272,149.0625,True,False,False,S180920821,"P3J6+MX Cook ACT, Australia",
burtho1,Buff-rumped Thornbill,Acanthiza reguloides,L932079,Mount Painter Nature Reserve,2024-06-12 16:25,4.0,-35.2683272,149.0625,True,False,False,S180920821,"P3J6+MX Cook ACT, Australia",
gagcoc1,Gang-gang Cockatoo,Callocephalon fimbriatum,L932079,Mount Painter Nature Reserve,2024-06-12 16:25,1.0,-35.2683272,149.0625,True,False,False,S180920821,"P3J6+MX Cook ACT, Australia",
yeltho1,Yellow Thornbill,Acanthiza nana,L932079,Mount Painter Nature Reserve,2024-06-12 16:25,2.0,-35.2683272,149.0625,True,False,False,S180920821,"P3J6+MX Cook ACT, Australia",
golwhi1,Golden Whistler,Pachycephala pectoralis,L932079,Mount Painter Nature Reserve,2024-06-12 16:25,3.0,-35.2683272,149.0625,True,False,False,S180920821,"P3J6+MX Cook ACT, Australia",
wawduc1,Wandering Whistling-Duck,Dendrocygna arcuata,L958432,Fogg Dam Conservation Reserve,2024-06-12 16:23,30.0,-12.5634229,131.3034922,True,False,False,S180924592,"Fogg Dam Conservation Reserve, Anzac Parade, Middle Point NT 0822, Australia",
litegr,Little Egret,Egretta garzetta,L958432,Fogg Dam Conservation Reserve,2024-06-12 16:23,30.0,-12.5634229,131.3034922,True,False,False,S180924592,"Fogg Dam Conservation Reserve, Anzac Parade, Middle Point NT 0822, Australia",
papfly1,Paperbark Flycatcher,Myiagra nana,L958432,Fogg Dam Conservation Reserve,2024-06-12 16:23,2.0,-12.5634229,131.3034922,True,False,False,S180924592,"Fogg Dam Conservation Reserve, Anzac Parade, Middle Point NT 0822, Australia",
radshe1,Radjah Shelduck,Radjah radjah,L958432,Fogg Dam Conservation Reserve,2024-06-12 16:23,10.0,-12.5634229,131.3034922,True,False,False,S180924592,"Fogg Dam Conservation Reserve, Anzac Parade, Middle Point NT 0822, Australia",
pieher2,Pied Heron,Egretta picata,L958432,Fogg Dam Conservation Reserve,2024-06-12 16:23,100.0,-12.5634229,131.3034922,True,False,False,S180924592,"Fogg Dam Conservation Reserve, Anzac Parade, Middle Point NT 0822, Australia",
royspo1,Royal Spoonbill,Platalea regia,L958432,Fogg Dam Conservation Reserve,2024-06-12 16:23,5.0,-12.5634229,131.3034922,True,False,False,S180924592,"Fogg Dam Conservation Reserve, Anzac Parade, Middle Point NT 0822, Australia",
noifri1,Noisy Friarbird,Philemon corniculatus,L2558543,Sewage works Bribie Island,2024-06-12 16:22,4.0,-27.08759,153.18318,True,False,False,S180923768,"W56M+X7 Woorim QLD, Australia",
piecor1,Pied Cormorant,Phalacrocorax varius,L33207253,"Beecroft Pde, Currarong AU-NSW -35.01345, 150.82471",2024-06-12 16:22,1.0,-35.013454,150.824707,True,False,True,S180917977,"29 Beecroft Parade, Currarong NSW 2540, Australia",
ausgan1,Australasian Gannet,Morus serrator,L33207253,"Beecroft Pde, Currarong AU-NSW -35.01345, 150.82471",2024-06-12 16:22,4.0,-35.013454,150.824707,True,False,True,S180917977,"29 Beecroft Parade, Currarong NSW 2540, Australia",
caster1,Caspian Tern,Hydroprogne caspia,L33207253,"Beecroft Pde, Currarong AU-NSW -35.01345, 150.82471",2024-06-12 16:22,1.0,-35.013454,150.824707,True,False,True,S180917977,"29 Beecroft Parade, Currarong NSW 2540, Australia",
lewhon1,Lewin's Honeyeater,Meliphaga lewinii,L2558543,Sewage works Bribie Island,2024-06-12 16:22,1.0,-27.08759,153.18318,True,False,False,S180923768,"W56M+X7 Woorim QLD, Australia",
grecor,Great Cormorant,Phalacrocorax carbo,L33207253,"Beecroft Pde, Currarong AU-NSW -35.01345, 150.82471",2024-06-12 16:22,4.0,-35.013454,150.824707,True,False,True,S180917977,"29 Beecroft Parade, Currarong NSW 2540, Australia",
bruwat1,Little Wattlebird,Anthochaera chrysoptera,L33207253,"Beecroft Pde, Currarong AU-NSW -35.01345, 150.82471",2024-06-12 16:22,2.0,-35.013454,150.824707,True,False,True,S180917977,"29 Beecroft Parade, Currarong NSW 2540, Australia",
spocra2,Spotless Crake,Zapornia tabuensis,L1314961,Laratinga Wetlands,2024-06-12 16:21,1.0,-35.0697666,138.8858986,True,False,False,S180918161,"170 Springs Rd, Mount Barker SA 5251, Australia",
skylar,Eurasian Skylark,Alauda arvensis,L33207752,"Rushy Lagoon, Tasmania, AU (-40.849, 147.968)",2024-06-12 16:20,1.0,-40.8487637,147.9681363,True,False,True,S180920099,"5X29+F7 Rushy Lagoon TAS, Australia",N
gyhrob2,Gray-headed Robin,Heteromyias cinereifrons,L928828,Crater Lakes National Park--Lake Eacham,2024-06-12 16:18,3.0,-17.2857129,145.6286654,True,False,False,S180927959,"PJ7H+PF Lake Eacham QLD, Australia",
easwhi1,Eastern Whipbird,Psophodes olivaceus,L928828,Crater Lakes National Park--Lake Eacham,2024-06-12 16:18,1.0,-17.2857129,145.6286654,True,False,False,S180927959,"PJ7H+PF Lake Eacham QLD, Australia",
olbsun2,Sahul Sunbird,Cinnyris frenatus,L928828,Crater Lakes National Park--Lake Eacham,2024-06-12 16:18,1.0,-17.2857129,145.6286654,True,False,False,S180927959,"PJ7H+PF Lake Eacham QLD, Australia",
hohgre1,Hoary-headed Grebe,Poliocephalus poliocephalus,L2541242,Tuggeranong Marsh,2024-06-12 16:17,1.0,-35.4243414,149.0640533,True,False,False,S180918757,"H3G7+7J Greenway ACT, Australia",
yethon1,Yellow-throated Honeyeater,Nesoptilotis flavicollis,L33207828,"31–33 Medeas Cove Rd, St Helens AU-TAS (-41.3294,148.2471)",2024-06-12 16:17,1.0,-41.329421,148.247141,True,False,True,S180920403,"2 Tasman Hwy, Saint Helens TAS 7216, Australia",
scamyz1,Scarlet Myzomela,Myzomela sanguinolenta,L33206976,"122 Dan Street, Karalee, Queensland, AU (-27.565, 152.805)",2024-06-12 16:17,3.0,-27.5649253,152.8051878,True,False,True,S180916687,"122 Dan St, Karalee QLD 4306, Australia",
forrav1,Forest Raven,Corvus tasmanicus,L33207828,"31–33 Medeas Cove Rd, St Helens AU-TAS (-41.3294,148.2471)",2024-06-12 16:17,1.0,-41.329421,148.247141,True,False,True,S180920403,"2 Tasman Hwy, Saint Helens TAS 7216, Australia",
yefhon1,Yellow-faced Honeyeater,Caligavis chrysops,L33206976,"122 Dan Street, Karalee, Queensland, AU (-27.565, 152.805)",2024-06-12 16:17,11.0,-27.5649253,152.8051878,True,False,True,S180916687,"122 Dan St, Karalee QLD 4306, Australia",
yelrob1,Eastern Yellow Robin,Eopsaltria australis,L33206976,"122 Dan Street, Karalee, Queensland, AU (-27.565, 152.805)",2024-06-12 16:17,1.0,-27.5649253,152.8051878,True,False,True,S180916687,"122 Dan St, Karalee QLD 4306, Australia",
greros2,Green Rosella,Platycercus caledonicus,L33207828,"31–33 Medeas Cove Rd, St Helens AU-TAS (-41.3294,148.2471)",2024-06-12 16:17,6.0,-41.329421,148.247141,True,False,True,S180920403,"2 Tasman Hwy, Saint Helens TAS 7216, Australia",
brhhon1,Brown-headed Honeyeater,Melithreptus brevirostris,L2541622,Scott Creek Conservation Park,2024-06-12 16:15,14.0,-35.08592,138.69895,True,False,False,S180924464,"WM7X+JH Dorset Vale SA, Australia",
weswhi2,Western Whistler,Pachycephala fuliginosa,L2541622,Scott Creek Conservation Park,2024-06-12 16:15,2.0,-35.08592,138.69895,True,False,False,S180924464,"WM7X+JH Dorset Vale SA, Australia",
grycur1,Gray Currawong,Strepera versicolor,L2541622,Scott Creek Conservation Park,2024-06-12 16:15,2.0,-35.08592,138.69895,True,False,False,S180924464,"WM7X+JH Dorset Vale SA, Australia",
soooys1,Sooty Oystercatcher,Haematopus fuliginosus,L2559238,Mooloolaba,2024-06-12 16:13,2.0,-26.68243,153.12332,True,False,False,S180917963,"Caravan Park, 100 Parkyn Parade, Mooloolaba QLD 4557, Australia",
whfter1,White-fronted Tern,Sterna striata,L928252,Long Reef Aquatic Reserve,2024-06-12 16:10,1.0,-33.7417875,151.3162208,True,False,False,S180919436,"7858+7F Collaroy NSW, Australia",
rewbul,Red-whiskered Bulbul,Pycnonotus jocosus,L2556849,"Tallawarra Foreshore, Lake Illawarra",2024-06-12 16:07,5.0,-34.5247764,150.8085108,True,False,False,S180918913,"FRG5+3C Yallah NSW, Australia",N
rebfir1,Red-browed Firetail,Neochmia temporalis,L2556849,"Tallawarra Foreshore, Lake Illawarra",2024-06-12 16:07,47.0,-34.5247764,150.8085108,True,False,False,S180918913,"FRG5+3C Yallah NSW, Australia",
laudov1,Laughing Dove,Spilopelia senegalensis,L11027892,Percy Doyle Reserve (Duncraig),2024-06-12 16:05,3.0,-31.8380473,115.7680403,True,False,False,S180922558,"37 Amaroo Pl, Duncraig WA 6023, Australia",N
whbwoo5,White-browed Woodswallow,Artamus superciliosus,L1650663,Paddabilla Bore (aka Eulo Bore),2024-06-12 16:05,4.0,-28.1171,145.1952,True,False,False,S180931756,5R37V5MW+53,
bluebo1,Greater Bluebonnet,Northiella haematogaster,L1650663,Paddabilla Bore (aka Eulo Bore),2024-06-12 16:05,2.0,-28.1171,145.1952,True,False,False,S180931756,5R37V5MW+53,
whchon2,White-cheeked Honeyeater,Phylidonyris niger,L11027892,Percy Doyle Reserve (Duncraig),2024-06-12 16:05,5.0,-31.8380473,115.7680403,True,False,False,S180922558,"37 Amaroo Pl, Duncraig WA 6023, Australia",
aurwar1,Australian Reed Warbler,Acrocephalus australis,L2538268,Lily Creek Lagoon and Celebrity Tree Park,2024-06-12 16:04,,-15.7855547,128.7382626,True,False,False,S180925700,"6P7Q+Q8 Kununurra WA, Australia",
chbmun1,Chestnut-breasted Munia,Lonchura castaneothorax,L2538268,Lily Creek Lagoon and Celebrity Tree Park,2024-06-12 16:04,,-15.7855547,128.7382626,True,False,False,S180925700,"6P7Q+Q8 Kununurra WA, Australia",
grnpyg1,Green Pygmy-Goose,Nettapus pulchellus,L2538268,Lily Creek Lagoon and Celebrity Tree Park,2024-06-12 16:04,,-15.7855547,128.7382626,True,False,False,S180925700,"6P7Q+Q8 Kununurra WA, Australia",
brnowl,Barn Owl,Tyto alba,L2540103,Lucinda,2024-06-12 16:03,1.0,-18.5295323,146.3368572,True,False,False,S180928267,"F8CP+5P Lucinda QLD, Australia",
olbori1,Olive-backed Oriole,Oriolus sagittatus,L2347037,Kumbartcho Sanctuary,2024-06-12 16:03,1.0,-27.3475453,152.9423583,True,False,False,S180918052,"13 Bunya Pine Ct, Eatons Hill QLD 4037, Australia",
ausswi1,Australian Swiftlet,Aerodramus terraereginae,L6700798,Royal Harbour Cairns Esplanade. Birds seen from my Balcony.,2024-06-12 16:00,73.0,-16.9199466,145.7770765,True,False,True,S180923908,"Shop 6 “Royal Harbour Night Markets and Food Court, 54/60 Abbott St, Cairns City QLD 4870, Australia",
yelwat1,Yellow Wattlebird,Anthochaera paradoxa,L3007365,Hobart Rivulet Linear Park,2024-06-12 16:00,2.0,-42.8920956,147.3087001,True,False,False,S180916608,"57 Anglesea St, South Hobart TAS 7004, Australia",
varhon1,Varied Honeyeater,Gavicalis versicolor,L6700798,Royal Harbour Cairns Esplanade. Birds seen from my Balcony.,2024-06-12 16:00,3.0,-16.9199466,145.7770765,True,False,True,S180923908,"Shop 6 “Royal Harbour Night Markets and Food Court, 54/60 Abbott St, Cairns City QLD 4870, Australia",
batgod,Bar-tailed Godwit,Limosa lapponica,L6700798,Royal Harbour Cairns Esplanade. Birds seen from my Balcony.,2024-06-12 16:00,2.0,-16.9199466,145.7770765,True,False,True,S180923908,"Shop 6 “Royal Harbour Night Markets and Food Court, 54/60 Abbott St, Cairns City QLD 4870, Australia",
faecur,Far Eastern Curlew,Numenius madagascariensis,L6700798,Royal Harbour Cairns Esplanade. Birds seen from my Balcony.,2024-06-12 16:00,3.0,-16.9199466,145.7770765,True,False,True,S180923908,"Shop 6 “Royal Harbour Night Markets and Food Court, 54/60 Abbott St, Cairns City QLD 4870, Australia",
gubter3,Australian Tern,Gelochelidon macrotarsa,L6700798,Royal Harbour Cairns Esplanade. Birds seen from my Balcony.,2024-06-12 16:00,2.0,-16.9199466,145.7770765,True,False,True,S180923908,"Shop 6 “Royal Harbour Night Markets and Food Court, 54/60 Abbott St, Cairns City QLD 4870, Australia",
metsta1,Metallic Starling,Aplonis metallica,L6700798,Royal Harbour Cairns Esplanade. Birds seen from my Balcony.,2024-06-12 16:00,1.0,-16.9199466,145.7770765,True,False,True,S180923908,"Shop 6 “Royal Harbour Night Markets and Food Court, 54/60 Abbott St, Cairns City QLD 4870, Australia",
tremar2,Tree Martin,Petrochelidon nigricans,L4890539,Urangan Pier,2024-06-12 15:59,15.0,-25.2824975,152.9038739,True,False,False,S180918253,"Hervey Bay Fraser Lions Park, 579 Esplanade, Urangan QLD 4655, Australia",
brnboo,Brown Booby,Sula leucogaster,L4890539,Urangan Pier,2024-06-12 15:59,1.0,-25.2824975,152.9038739,True,False,False,S180918253,"Hervey Bay Fraser Lions Park, 579 Esplanade, Urangan QLD 4655, Australia",
blbduc1,Blue-billed Duck,Oxyura australis,L2541241,Upper Stranger Pond,2024-06-12 15:58,1.0,-35.42512,149.08172,True,False,False,S180925167,"Waterside Gardens, 23 Jondol Pl, Isabella Plains ACT 2905, Australia",
greori1,Green Oriole,Oriolus flavocinctus,L25314898,Daintree Wild River Watch Boat Trip,2024-06-12 15:58,,-16.2496567,145.3169003,True,False,True,S180924036,"Riverview Caravan Park, 2 Stewart St, Daintree QLD 4873, Australia",
brcdov1,Brown Cuckoo-Dove,Macropygia phasianella,L25314898,Daintree Wild River Watch Boat Trip,2024-06-12 15:58,1.0,-16.2496567,145.3169003,True,False,True,S180924036,"Riverview Caravan Park, 2 Stewart St, Daintree QLD 4873, Australia",
azukin1,Azure Kingfisher,Ceyx azureus,L25314898,Daintree Wild River Watch Boat Trip,2024-06-12 15:58,1.0,-16.2496567,145.3169003,True,False,True,S180924036,"Riverview Caravan Park, 2 Stewart St, Daintree QLD 4873, Australia",
litgra1,Little Grassbird,Poodytes gramineus,L2541241,Upper Stranger Pond,2024-06-12 15:58,1.0,-35.42512,149.08172,True,False,False,S180925167,"Waterside Gardens, 23 Jondol Pl, Isabella Plains ACT 2905, Australia",
litkin1,Little Kingfisher,Ceyx pusillus,L25314898,Daintree Wild River Watch Boat Trip,2024-06-12 15:58,1.0,-16.2496567,145.3169003,True,False,True,S180924036,"Riverview Caravan Park, 2 Stewart St, Daintree QLD 4873, Australia",
papfro1,Papuan Frogmouth,Podargus papuensis,L25314898,Daintree Wild River Watch Boat Trip,2024-06-12 15:58,2.0,-16.2496567,145.3169003,True,False,True,S180924036,"Riverview Caravan Park, 2 Stewart St, Daintree QLD 4873, Australia",
regpar1,Regent Parrot,Polytelis anthopeplus,L3168039,Hattah-Kulkyne National Park--Lake Mournpall campground,2024-06-12 15:55,146.0,-34.7048731,142.335835,True,False,False,S180920200,"Lake Mournpall Camping Area, Mournpall Track, Hattah VIC 3501, Australia",
kelgul,Kelp Gull,Larus dominicanus,L33206964,"Tessellated Pavement Tk, Eaglehawk Neck AU-TAS -43.01024, 147.92968",2024-06-12 15:55,4.0,-43.01024,147.929677,True,False,True,S180916592,"380 Pirates Bay Dr, Eaglehawk Neck TAS 7179, Australia",
pacgul1,Pacific Gull,Larus pacificus,L25939434,Pelican Point,2024-06-12 15:54,8.0,-41.321699,148.301945,True,False,True,S180915752,"242 C851, Stieglitz TAS 7216, Australia",
swahar1,Swamp Harrier,Circus approximans,L25939434,Pelican Point,2024-06-12 15:54,1.0,-41.321699,148.301945,True,False,True,S180915752,"242 C851, Stieglitz TAS 7216, Australia",
eurgol,European Goldfinch,Carduelis carduelis,L33209036,"206 Huon-Kiewa Rd, Tangambalanga AU-VIC -36.23752, 147.04805",2024-06-12 15:53,,-36.23752,147.048051,True,False,True,S180925991,"206 Huon-Kiewa Rd, Tangambalanga VIC 3691, Australia",N
resfly1,Restless Flycatcher,Myiagra inquieta,L5870759,Capertee National Park--Capertee Cottage,2024-06-12 15:52,1.0,-33.0224459,150.0344038,True,False,False,S180917946,"1046 Port Macquarie Rd, Bogee NSW 2849, Australia",
redthr1,Redthroat,Pyrrholaemus brunneus,L33211836,Around 5 km from Windorah on the Jundah Road,2024-06-12 15:50,2.0,-25.3044339,142.6620911,True,False,True,S180941026,5R64MMW6+6R,
boupar2,Bourke's Parrot,Neophema bourkii,L33211836,Around 5 km from Windorah on the Jundah Road,2024-06-12 15:50,1.0,-25.3044339,142.6620911,True,False,True,S180941026,5R64MMW6+6R,
halbab1,Hall's Babbler,Pomatostomus halli,L33211836,Around 5 km from Windorah on the Jundah Road,2024-06-12 15:50,10.0,-25.3044339,142.6620911,True,False,True,S180941026,5R64MMW6+6R,
banlap1,Banded Lapwing,Vanellus tricolor,L28252014,"Tuckers Road, Rushy Lagoon, Tasmania, AU (-40.861, 147.978)",2024-06-12 15:44,11.0,-40.8612718,147.978282,True,False,True,S180920022,"Tuckers Rd, Rushy Lagoon TAS 7264, Australia",
grecat1,Green Catbird,Ailuroedus crassirostris,L2558769,Lake MacDonald Noosa Botanical Gardens,2024-06-12 15:41,2.0,-26.3874,152.92972,True,False,False,S180918872,"Noosa Botanic Gardens, Lake MacDonald Dr, Lake MacDonald QLD 4563, Australia",
litlor1,Little Lorikeet,Parvipsitta pusilla,L26825655,"113 Dan Street, Karalee, Queensland, AU (-27.567, 152.806)",2024-06-12 15:40,3.0,-27.5665242,152.8058164,True,False,True,S180915758,"113 Dan St, Karalee QLD 4306, Australia",
whwfai1,White-winged Fairywren,Malurus leucopterus,L33206833,"Lookout Road, Port Augusta West, South Australia, AU (-32.463, 137.752)",2024-06-12 15:33,3.0,-32.4629915,137.7520513,True,False,True,S180915849,"Lookout Rd, Port Augusta West SA 5700, Australia",
inltho1,Inland Thornbill,Acanthiza apicalis,L2534850,Whiteman Park--Horse Swamp,2024-06-12 15:30,3.0,-31.84673,115.95962,True,False,False,S180927687,"5X35+8R Bennett Springs WA, Australia",
fushon1,Fuscous Honeyeater,Ptilotula fusca,L7963886,"KP--Lot 4, front section box-gum woodland",2024-06-12 15:30,4.0,-29.9853126,151.0761587,True,False,True,S180918578,"237G+VF Stanborough NSW, Australia",
splfai1,Splendid Fairywren,Malurus splendens,L2534850,Whiteman Park--Horse Swamp,2024-06-12 15:30,12.0,-31.84673,115.95962,True,False,False,S180927687,"5X35+8R Bennett Springs WA, Australia",
rosrob1,Rose Robin,Petroica rosea,L3007680,"Fred Finch Park, Berkeley",2024-06-12 15:25,1.0,-34.48472,150.83583,True,False,False,S180925939,"GR8P+48 Berkeley NSW, Australia",
varsit8,Varied Sittella,Daphoenositta chrysoptera,L33207496,"Alma Park, Uralla AU-NSW -30.63704, 151.50015",2024-06-12 15:23,3.0,-30.637038,151.50015,True,False,True,S180919151,"1 Thunderbolts Way, Uralla NSW 2358, Australia",
tastho1,Tasmanian Thornbill,Acanthiza ewingii,L33206389,"25–39 Aquaculture Rd, St Helens AU-TAS -41.31178, 148.27090",2024-06-12 15:23,1.0,-41.311783,148.2709,True,False,True,S180913718,"43 Aquaculture Dr, Saint Helens TAS 7216, Australia",
gubter2,Gull-billed Tern,Gelochelidon nilotica,L4488665,Boiler Point (Roebuck Bay),2024-06-12 15:20,8.0,-17.9797525,122.3585963,True,False,False,S180941250,5QJ429C5+3C,
renavo1,Red-necked Avocet,Recurvirostra novaehollandiae,L4488665,Boiler Point (Roebuck Bay),2024-06-12 15:20,7.0,-17.9797525,122.3585963,True,False,False,S180941250,5QJ429C5+3C,
pucfai2,Purple-crowned Fairywren,Malurus coronatus,L12099429,Buntine Hwy at Victoria River Bridge (Kalkarindji),2024-06-12 15:15,6.0,-17.447362,130.840058,True,False,False,S180941094,"10 Buntine Hwy, Kalkarindji NT 0852, Australia",
slbblc1,Carnaby's Black-Cockatoo,Zanda latirostris,L33208387,Yanchep Koala Boardwalk,2024-06-12 15:15,,-31.5451036,115.6842951,True,False,True,S180922607,"FM3M+XP Yanchep WA, Australia",
busrob1,Buff-sided Robin,Poecilodryas cerviniventris,L12099429,Buntine Hwy at Victoria River Bridge (Kalkarindji),2024-06-12 15:15,2.0,-17.447362,130.840058,True,False,False,S180941094,"10 Buntine Hwy, Kalkarindji NT 0852, Australia",
picmun1,Pictorella Munia,Heteromunia pectoralis,L12099429,Buntine Hwy at Victoria River Bridge (Kalkarindji),2024-06-12 15:15,3.0,-17.447362,130.840058,True,False,False,S180941094,"10 Buntine Hwy, Kalkarindji NT 0852, Australia",
brofal1,Brown Falcon,Falco berigora,L12099429,Buntine Hwy at Victoria River Bridge (Kalkarindji),2024-06-12 15:15,1.0,-17.447362,130.840058,True,False,False,S180941094,"10 Buntine Hwy, Kalkarindji NT 0852, Australia",
yebspo1,Yellow-billed Spoonbill,Platalea flavipes,L2554251,Eulo,2024-06-12 15:13,1.0,-28.15979,145.04425,True,False,False,S180931639,"20 Eulo St, Eulo QLD 4491, Australia",
sqtkit1,Square-tailed Kite,Lophoictinia isura,L28941293,"2-10 Morrisby Street, Upper Caboolture, Queensland, AU (-27.114, 152.894)",2024-06-12 15:09,1.0,-27.1135236,152.893903,True,False,True,S180913063,"2-10 Morrisby St, Upper Caboolture QLD 4510, Australia",
sosrob1,Southern Scrub-Robin,Drymodes brunneopygia,L2031551,Lincoln National Park,2024-06-12 15:05,3.0,-34.85212,135.88989,True,False,False,S180920602,"4VXQ+5X Lincoln National Park SA, Australia",
blbfai1,Blue-breasted Fairywren,Malurus pulcherrimus,L2031551,Lincoln National Park,2024-06-12 15:05,2.0,-34.85212,135.88989,True,False,False,S180920602,"4VXQ+5X Lincoln National Park SA, Australia",
brubro1,Brush Bronzewing,Phaps elegans,L2031551,Lincoln National Park,2024-06-12 15:05,3.0,-34.85212,135.88989,True,False,False,S180920602,"4VXQ+5X Lincoln National Park SA, Australia",
whiter2,Whiskered Tern,Chlidonias hybrida,L12530525,Hughenden Recreational Lake,2024-06-12 15:05,3.0,-20.8480508,144.2063198,True,False,False,S180913521,"5624+QG Hughenden QLD, Australia",
duswoo1,Dusky Woodswallow,Artamus cyanopterus,L2031551,Lincoln National Park,2024-06-12 15:05,12.0,-34.85212,135.88989,True,False,False,S180920602,"4VXQ+5X Lincoln National Park SA, Australia",
whbscr3,Spotted Scrubwren,Sericornis maculatus,L2031551,Lincoln National Park,2024-06-12 15:05,2.0,-34.85212,135.88989,True,False,False,S180920602,"4VXQ+5X Lincoln National Park SA, Australia",
gybrob1,Western Yellow Robin,Eopsaltria griseogularis,L2031551,Lincoln National Park,2024-06-12 15:05,2.0,-34.85212,135.88989,True,False,False,S180920602,"4VXQ+5X Lincoln National Park SA, Australia",
strher,Striated Heron,Butorides striata,L8213503,Kulki (Cape Tribulation) lookout,2024-06-12 15:05,2.0,-16.0766969,145.4717718,True,False,False,S180916992,"Kulki Rainforest Walk, Cape Tribulation Rd, Cape Tribulation QLD 4873, Australia",
pughon1,Purple-gaped Honeyeater,Lichenostomus cratitius,L2031551,Lincoln National Park,2024-06-12 15:05,1.0,-34.85212,135.88989,True,False,False,S180920602,"4VXQ+5X Lincoln National Park SA, Australia",
tasscr1,Tasmanian Scrubwren,Sericornis humilis,L33207691,"Cape Portland Road, Rushy Lagoon, Tasmania, AU (-40.835, 148.01)",2024-06-12 15:01,1.0,-40.8354186,148.0102701,True,False,True,S180919899,"C844, Rushy Lagoon TAS 7264, Australia",
rebfai1,Red-backed Fairywren,Malurus melanocephalus,L3108342,Bribie Island Sports Complex,2024-06-12 14:56,1.0,-27.0815191,153.1787038,True,False,False,S180925300,"W59H+9F Woorim QLD, Australia",
whimbr,Whimbrel,Numenius phaeopus,L7612442,Careening Bay,2024-06-12 14:54,1.0,-15.1051168,125.0092328,True,False,False,S180944047,5QP7V2V5+XM,
raipit1,Rainbow Pitta,Pitta iris,L7612442,Careening Bay,2024-06-12 14:54,1.0,-15.1051168,125.0092328,True,False,False,S180944047,5QP7V2V5+XM,
pahros1,Pale-headed Rosella,Platycercus adscitus,L2558987,Ferny Grove,2024-06-12 14:51,2.0,-27.40716,152.93822,True,False,False,S180912519,"50 Tramway St, Ferny Grove QLD 4055, Australia",
recplo1,Red-capped Plover,Anarhynchus ruficapillus,L2547544,Colchis Creek Mouth,2024-06-12 14:51,27.0,-41.32266,148.25641,True,False,False,S180913066,"3 C850, Saint Helens TAS 7216, Australia",
blfcor1,Black-faced Cormorant,Phalacrocorax fuscescens,L2547544,Colchis Creek Mouth,2024-06-12 14:51,1.0,-41.32266,148.25641,True,False,False,S180913066,"3 C850, Saint Helens TAS 7216, Australia",
whehon1,White-eared Honeyeater,Nesoptilotis leucotis,L2040933,Royal Botanic Gardens (Cranbourne),2024-06-12 14:48,5.0,-38.1321261,145.2763367,True,False,False,S180916922,"V79G+4G Cranbourne VIC, Australia",
wispet,Wilson's Storm-Petrel,Oceanites oceanicus,L3442562,Wader Spit (Roebuck Bay),2024-06-12 14:45,2.0,-17.979327,122.336533,True,False,False,S180941158,5QJ428CP+7J,
lecter2,Lesser Crested Tern,Thalasseus bengalensis,L3442562,Wader Spit (Roebuck Bay),2024-06-12 14:45,9.0,-17.979327,122.336533,True,False,False,S180941158,5QJ428CP+7J,
noipit1,Noisy Pitta,Pitta versicolor,L927997,Limeburners Creek National Park--Point Plomer,2024-06-12 14:44,1.0,-31.3152215,152.9715729,True,False,False,S180934064,"1412 Point Plomer Rd, Limeburners Creek NSW 2444, Australia",
brotre2,Brown Treecreeper,Climacteris picumnus,L19445329,"Caloona Boomi Road, Boomi, New South Wales, AU (-28.739, 149.441)",2024-06-12 14:42,1.0,-28.738921,149.440654,True,False,True,S180914491,"7C6R+C7 Boomi NSW, Australia",
pieduc1,Pink-eared Duck,Malacorhynchus membranaceus,L921850,Western Treatment Plant,2024-06-12 14:40,400.0,-37.9979192,144.5917504,True,False,False,S180913828,"2H2R+RP Cocoroc VIC, Australia",
rekdot1,Red-kneed Dotterel,Erythrogonys cinctus,L921850,Western Treatment Plant,2024-06-12 14:40,2.0,-37.9979192,144.5917504,True,False,False,S180913828,"2H2R+RP Cocoroc VIC, Australia",
weteag1,Wedge-tailed Eagle,Aquila audax,L33206589,"Boomi River Road, Boomi, New South Wales, AU (-28.713, 149.412)",2024-06-12 14:37,1.0,-28.7129465,149.4115286,True,False,True,S180914578,"Boomi River Rd, Boomi NSW 2405, Australia",
plhfin1,Plum-headed Finch,Aidemosyne modesta,L2561166,"Iningai Nature Park, Longreach",2024-06-12 14:29,16.0,-23.45406,144.2457,True,False,False,S180915706,5R86G6WW+97,
brakit1,Brahminy Kite,Haliastur indus,L33205846,"74 Queen Street, Iluka, New South Wales, AU (-29.412, 153.354)",2024-06-12 14:21,1.0,-29.4122587,153.3543381,True,False,True,S180911051,"74 Queen St, Iluka NSW 2466, Australia",
rebtre1,Red-browed Treecreeper,Climacteris erythrops,L2543102,Lake Kerferd,2024-06-12 14:18,4.0,-36.36725,146.74086,True,False,False,S180925437,"JPMR+48 Stanley VIC, Australia",
cresht1,Eastern Shrike-tit,Falcunculus frontatus,L2543102,Lake Kerferd,2024-06-12 14:18,2.0,-36.36725,146.74086,True,False,False,S180925437,"JPMR+48 Stanley VIC, Australia",
cursan,Curlew Sandpiper,Calidris ferruginea,L3812503,Cairns Esplanade--Southern End,2024-06-12 14:12,2.0,-16.9182596,145.7762807,True,False,False,S180915339,"775 Esplanade, Cairns City QLD 4870, Australia",
nutman,Scaly-breasted Munia,Lonchura punctulata,L3812503,Cairns Esplanade--Southern End,2024-06-12 14:12,1.0,-16.9182596,145.7762807,True,False,False,S180915339,"775 Esplanade, Cairns City QLD 4870, Australia",N
whhpig1,White-headed Pigeon,Columba leucomela,L21266515,Home2,2024-06-12 14:07,1.0,-26.536248,152.987483,True,False,True,S180918879,"23 Karnu Dr, Valdora QLD 4561, Australia",
broson1,Brown Songlark,Cincloramphus cruralis,L18473996,"6753, Newman AU-WA -23.32877, 119.73727",2024-06-12 14:04,1.0,-23.328765,119.737265,True,False,True,S180918365,5P8XMPCP+FW,
varfai5,Variegated Fairywren,Malurus lamberti,L21982170,Habitat Springs Bushland Reserve,2024-06-12 14:04,4.0,-27.666395,152.9301463,True,False,False,S180914761,"59 Heritage Cct, Springfield Lakes QLD 4300, Australia",
hobcuc1,Horsfield's Bronze-Cuckoo,Chrysococcyx basalis,L18473996,"6753, Newman AU-WA -23.32877, 119.73727",2024-06-12 14:04,1.0,-23.328765,119.737265,True,False,True,S180918365,5P8XMPCP+FW,
norgip1,Northern Giant-Petrel,Macronectes halli,L2541532,Cape Willoughby Lighthouse Reserve,2024-06-12 14:02,1.0,-35.84126,138.13273,True,False,False,S180914969,"545M+F3 Willoughby SA, Australia",
spewar3,Speckled Warbler,Pyrrholaemus sagittatus,L2541269,North Mulligans,2024-06-12 14:01,1.0,-35.14918,149.15812,True,False,False,S180915868,"V525+86 Bonner ACT, Australia",
broger1,Brown Gerygone,Gerygone mouki,L4000804,Nightcap National Park--Minyon Falls and picnic area,2024-06-12 14:01,1.0,-28.611942,153.390404,True,False,False,S180909777,"Minyon Platform Track, Whian Whian NSW 2480, Australia",
powowl1,Powerful Owl,Ninox strenua,L945869,Centennial Park (Sydney),2024-06-12 14:00,1.0,-33.8977058,151.2341452,True,False,False,S180919866,"2 Darley Rd, Centennial Park NSW 2021, Australia",
aussho1,Australasian Shoveler,Spatula rhynchotis,L2537369,Belmore Swamp at Seale Rd,2024-06-12 14:00,26.0,-31.109462,152.948699,True,False,False,S180916376,"VWRX+6F Belmore River NSW, Australia",
grygos1,Gray Goshawk,Accipiter novaehollandiae,L33205949,"Mullumbimby Road, power line",2024-06-12 14:00,1.0,-28.5724262,153.5320777,True,False,True,S180911717,"28 Mullumbimby Rd, Brunswick Heads NSW 2483, Australia",
musduc1,Musk Duck,Biziura lobata,L1032814,Alfred Cove Nature Reserve,2024-06-12 14:00,2.0,-32.0259058,115.8133221,True,False,False,S180916859,"XRF7+J8 Attadale WA, Australia",
colkin9,Torresian Kingfisher,Todiramphus sordidus,L989149,East Point,2024-06-12 13:59,1.0,-12.4097538,130.8227921,True,False,False,S180918630,"HRRF+34 East Point NT, Australia",
blafal1,Black Falcon,Falco subniger,L33205874,"4589 Stuart Hwy, Nitmiluk AU-NT (-14.1601,132.0122)",2024-06-12 13:59,1.0,-14.160108,132.012216,True,False,True,S180911194,5QQJR2Q6+XV,
chcbab2,Chestnut-crowned Babbler,Pomatostomus ruficeps,L3085675,Lake Bindegolly National Park--near highway bridge,2024-06-12 13:56,2.0,-28.0925,144.2019444,True,False,False,S180931541,5R36W642+XQ,
blahon1,Black Honeyeater,Sugomel nigrum,L3085675,Lake Bindegolly National Park--near highway bridge,2024-06-12 13:56,1.0,-28.0925,144.2019444,True,False,False,S180931541,5R36W642+XQ,
whbswa3,White-backed Swallow,Cheramoeca leucosterna,L3085675,Lake Bindegolly National Park--near highway bridge,2024-06-12 13:56,2.0,-28.0925,144.2019444,True,False,False,S180931541,5R36W642+XQ,
chiwed2,Chirruping Wedgebill,Psophodes cristatus,L3085675,Lake Bindegolly National Park--near highway bridge,2024-06-12 13:56,1.0,-28.0925,144.2019444,True,False,False,S180931541,5R36W642+XQ,
redkno,Red Knot,Calidris canutus,L2538202,Wader Beach (Roebuck Bay),2024-06-12 13:51,40.0,-17.977432,122.3333229,True,False,False,S180916765,5QJ428FM+28,
asidow1,Asian Dowitcher,Limnodromus semipalmatus,L2538202,Wader Beach (Roebuck Bay),2024-06-12 13:51,1.0,-17.977432,122.3333229,True,False,False,S180916765,5QJ428FM+28,
grekno,Great Knot,Calidris tenuirostris,L2538202,Wader Beach (Roebuck Bay),2024-06-12 13:51,500.0,-17.977432,122.3333229,True,False,False,S180916765,5QJ428FM+28,
beafir1,Beautiful Firetail,Stagonopleura bella,L25334694,"7264, Rushy Lagoon AU-TAS (-40.7892,147.9859)",2024-06-12 13:46,2.0,-40.789219,147.985889,True,False,True,S180913537,"6X6P+89 Rushy Lagoon TAS, Australia",
fatcuc1,Fan-tailed Cuckoo,Cacomantis flabelliformis,L26362279,Cockatiel Park (Greenbank),2024-06-12 13:45,2.0,-27.7336266,152.9067602,True,False,False,S180914616,"107 Bellbird Dr, Greenbank QLD 4124, Australia",
piemon1,Pied Monarch,Arses kaupi,L3594363,Mount Hypipamee National Park--picnic area,2024-06-12 13:45,1.0,-17.428377,145.4862205,True,False,False,S180931603,"HFCP+JF Upper Barron QLD, Australia",
leafly2,Leaden Flycatcher,Myiagra rubecula,L2533264,Baldwin Swamp Environment Park (Bundaberg),2024-06-12 13:33,2.0,-24.86527,152.36944,True,False,False,S180914534,"Baldwin Swamp Environment Park, Steindl St, Bundaberg East QLD 4670, Australia",
copgoo1,Cotton Pygmy-Goose,Nettapus coromandelianus,L2533264,Baldwin Swamp Environment Park (Bundaberg),2024-06-12 13:33,13.0,-24.86527,152.36944,True,False,False,S180914534,"Baldwin Swamp Environment Park, Steindl St, Bundaberg East QLD 4670, Australia",
wonpig1,Wonga Pigeon,Leucosarcia melanoleuca,L5050661,"143 Roach Rd. Lower Pappinbarra, NSW AU",2024-06-12 13:33,2.0,-31.430542,152.609915,True,False,True,S180909591,"HJ95+QX Lower Pappinbarra NSW, Australia",
yethon3,Yellow-tufted Honeyeater,Lichenostomus melanops,L33205222,"Aberdare State Forest, Kitchener AU-NSW -32.88619, 151.36746",2024-06-12 13:30,1.0,-32.886185,151.367462,True,False,True,S180908360,"493 Quorrobolong Rd, Kitchener NSW 2325, Australia",
reghon1,Regent Honeyeater,Anthochaera phrygia,L33205222,"Aberdare State Forest, Kitchener AU-NSW -32.88619, 151.36746",2024-06-12 13:30,3.0,-32.886185,151.367462,True,True,True,S180908360,"493 Quorrobolong Rd, Kitchener NSW 2325, Australia",
wesger1,Western Gerygone,Gerygone fusca,L923357,Herdsman Lake,2024-06-12 13:17,1.0,-31.926059,115.8070377,True,False,False,S180925577,"3RF4+HR Herdsman WA, Australia",
x00458,Mallard x Pacific Black Duck (hybrid),Anas platyrhynchos x superciliosa,L2548356,Rotary Centennial Park (Kingston Beach),2024-06-12 13:12,4.0,-42.97834,147.324,True,False,False,S180907661,"17 Balmoral Rd, Kingston Beach TAS 7050, Australia",N
whemon1,White-eared Monarch,Carterornis leucotis,L33206088,"Victoria Park Boardwalk, Dalwood AU-NSW (-28.9033,153.4109)",2024-06-12 13:07,1.0,-28.903348,153.410911,True,False,True,S180912280,"Victoria Park Nature Reserve, Victoria Park Ln, Dalwood NSW 2477, Australia",
emedov3,Pacific Emerald Dove,Chalcophaps longirostris,L33206088,"Victoria Park Boardwalk, Dalwood AU-NSW (-28.9033,153.4109)",2024-06-12 13:07,1.0,-28.903348,153.410911,True,False,True,S180912280,"Victoria Park Nature Reserve, Victoria Park Ln, Dalwood NSW 2477, Australia",
brbhon1,Brown-backed Honeyeater,Ramsayornis modestus,L981446,Cattana Wetlands,2024-06-12 13:06,1.0,-16.8305447,145.7031834,True,False,False,S180915494,"5P93+JC Crake Pond, Smithfield QLD 4878, Australia",
blabit1,Black Bittern,Ixobrychus flavicollis,L981446,Cattana Wetlands,2024-06-12 13:06,1.0,-16.8305447,145.7031834,True,False,False,S180915494,"5P93+JC Crake Pond, Smithfield QLD 4878, Australia",
bulalb2,Buller's Albatross,Thalassarche bulleri,L10122061,Petal Point,2024-06-12 13:03,1.0,-40.776888,147.9460824,True,False,False,S180913518,"6WFW+6C Cape Portland TAS, Australia",
bkbalb,Black-browed Albatross,Thalassarche melanophris,L10122061,Petal Point,2024-06-12 13:03,1.0,-40.776888,147.9460824,True,False,False,S180913518,"6WFW+6C Cape Portland TAS, Australia",
whcalb1,White-capped Albatross,Thalassarche cauta,L10122061,Petal Point,2024-06-12 13:03,5.0,-40.776888,147.9460824,True,False,False,S180913518,"6WFW+6C Cape Portland TAS, Australia",
puclor1,Purple-crowned Lorikeet,Parvipsitta porphyrocephala,L33207542,"3332, Lethbridge AU-VIC (-37.9541,144.0830)",2024-06-12 13:01,20.0,-37.954103,144.082974,True,False,True,S180919361,"23WM+95 Lethbridge VIC, Australia",
bkbkit1,Black-breasted Kite,Hamirostra melanosternon,L18183060,"Marble Bar Rd, Newman AU-WA -23.32646, 119.85285",2024-06-12 12:58,1.0,-23.326455,119.852848,True,False,True,S180913882,5P8XMVF3+C4,
sarcra1,Sarus Crane,Antigone antigone,L2539179,"Goose Lagoon, Normanton",2024-06-12 12:55,2.0,-17.64671,141.08934,True,False,False,S180909752,5RJ3933Q+8P,
maswoo1,Masked Woodswallow,Artamus personatus,L33210613,"Thargomindah Memorial Park, Thargomindah AU-QLD -27.99560, 143.82366",2024-06-12 12:51,12.0,-27.995601,143.823658,True,False,True,S180931460,"Thargomindah Memorial Park, 50 Dowling St, Thargomindah QLD 4492, Australia",
thbgra1,Western Grasswren,Amytornis textilis,L2394923,Whyalla Conservation Park,2024-06-12 12:47,3.0,-32.9445811,137.5398159,True,False,False,S180910212,"3G4Q+5W Whyalla Barson SA, Australia",
blhhon1,Black-headed Honeyeater,Melithreptus affinis,L1206912,Waterworks Reserve,2024-06-12 12:36,4.0,-42.9073428,147.2914052,True,False,False,S180909941,"Waterworks Reserve, Ridgeway Rd, Ridgeway TAS 7054, Australia",
stbhon2,Strong-billed Honeyeater,Melithreptus validirostris,L1206912,Waterworks Reserve,2024-06-12 12:36,1.0,-42.9073428,147.2914052,True,False,False,S180909941,"Waterworks Reserve, Ridgeway Rd, Ridgeway TAS 7054, Australia",
blecuc1,Black-eared Cuckoo,Chrysococcyx osculans,L33213549,"Great Northern Hwy, Daggar Hills AU-WA -27.81632, 117.92666",2024-06-12 12:31,1.0,-27.816323,117.926655,True,False,True,S180945089,5P4V5WMG+FM,
whfhon1,White-fronted Honeyeater,Purnella albifrons,L33213549,"Great Northern Hwy, Daggar Hills AU-WA -27.81632, 117.92666",2024-06-12 12:31,2.0,-27.816323,117.926655,True,False,True,S180945089,5P4V5WMG+FM,
wesbow1,Western Bowerbird,Chlamydera guttata,L33213549,"Great Northern Hwy, Daggar Hills AU-WA -27.81632, 117.92666",2024-06-12 12:31,1.0,-27.816323,117.926655,True,False,True,S180945089,5P4V5WMG+FM,
chiwed1,Chiming Wedgebill,Psophodes occidentalis,L33213549,"Great Northern Hwy, Daggar Hills AU-WA -27.81632, 117.92666",2024-06-12 12:31,2.0,-27.816323,117.926655,True,False,True,S180945089,5P4V5WMG+FM,
rensti,Red-necked Stint,Calidris ruficollis,L33204600,"AU (-24.964, 153.333)",2024-06-12 12:26,6.0,-24.9638639,153.3332765,True,False,True,S180905629,5R7M28PM+F8,
hooplo2,Hooded Plover,Charadrius cucullatus,L22993563,Scamander Beach,2024-06-12 12:26,6.0,-41.462311,148.264142,True,False,True,S180905055,"164 Scamander Ave, Scamander TAS 7215, Australia",
dobplo1,Double-banded Plover,Anarhynchus bicinctus,L28251990,"Cape Portland, Tasmania, AU (-40.763, 147.976)",2024-06-12 12:26,4.0,-40.7630163,147.9757906,True,False,True,S180917955,"6XPG+Q8 Cape Portland TAS, Australia",
souboo8,Southern Boobook,Ninox boobook,L2041733,Newport Lakes,2024-06-12 12:20,1.0,-37.8390723,144.8712158,True,False,False,S180931739,"2 Lakes Dr, Newport VIC 3015, Australia",
suplyr1,Superb Lyrebird,Menura novaehollandiae,L2551076,Yarra Ranges National Park--Mt Donna Buang,2024-06-12 12:16,2.0,-37.70772,145.67836,True,False,False,S180908300,"2 Rd 2, Warburton VIC 3799, Australia",
oltthr1,Bassian Thrush,Zoothera lunulata,L2531621,Wicks Reserve,2024-06-12 12:13,2.0,-37.85689,145.32079,True,False,False,S180914058,"40 Basin-Olinda Rd, The Basin VIC 3154, Australia",
whtger1,White-throated Gerygone,Gerygone olivacea,L1788977,Sandy Camp Road Wetlands,2024-06-12 12:12,2.0,-27.4349304,153.1473293,True,False,False,S180910131,"30 Haynes Rd, Lytton QLD 4178, Australia",
shbcuc1,Shining Bronze-Cuckoo,Chrysococcyx lucidus,L1788977,Sandy Camp Road Wetlands,2024-06-12 12:12,1.0,-27.4349304,153.1473293,True,False,False,S180910131,"30 Haynes Rd, Lytton QLD 4178, Australia",
bowsht1,Bower's Shrikethrush,Colluricincla boweri,L9920538,Malanda Falls Conservation Park--North Section,2024-06-12 12:09,1.0,-17.3537553,145.5850831,True,False,False,S180906588,"JHWP+F2 Malanda QLD, Australia",
recpar1,Red-capped Parrot,Purpureicephalus spurius,L4842007,Manning Lake,2024-06-12 12:05,1.0,-32.091424,115.770041,True,False,False,S180912533,"WQ5C+C2 Hamilton Hill WA, Australia",
toppig1,Topknot Pigeon,Lopholaimus antarcticus,L921536,Etty Bay,2024-06-12 11:59,8.0,-17.5573415,146.0894966,True,False,False,S180903354,"634 Etty Bay Rd, Etty Bay QLD 4858, Australia",
yephon1,Yellow-plumed Honeyeater,Ptilotula ornata,L2557158,Annuello Flora and Fauna Reserve,2024-06-12 11:48,4.0,-34.8949923,142.5610332,True,False,False,S180914128,"4H46+2C Kulwin VIC, Australia",
belmin1,Bell Miner,Manorina melanophrys,L2556452,Richmond Lowlands,2024-06-12 11:46,,-33.583542,150.7520719,True,False,False,S180911780,"CQ82+HR Richmond Lowlands NSW, Australia",
whnhon2,White-naped Honeyeater,Melithreptus lunatus,L2541984,Chiltern-Mt Pilot National Park--Honeyeater Picnic Ground,2024-06-12 11:40,5.0,-36.1591056,146.6416501,True,False,False,S180902173,"RJRR+9M Chiltern VIC, Australia",
rocpar1,Rock Parrot,Neophema petrophila,L6007152,Arno Bay Boardwalk and Bird Hide,2024-06-12 11:37,7.0,-33.9259309,136.5712488,True,False,False,S180920613,"3HFC+JF Arno Bay SA, Australia",
x00808,Crimson x Eastern Rosella (hybrid),Platycercus elegans x eximius,L33203111,Waramanga,2024-06-12 11:30,1.0,-35.3567579,149.0627427,True,True,True,S180900419,"44 Nemarang Cres, Waramanga ACT 2611, Australia",
brihon1,Bridled Honeyeater,Bolemoreus frenatus,L2295645,Daintree National Park--Marrdja Botanical Walk,2024-06-12 11:27,3.0,-16.1378839,145.4404838,True,False,False,S180909189,"Madja Boardwalk, LOT 10 Cape Tribulation Rd, Cape Tribulation QLD 4873, Australia",
vicrif1,Victoria's Riflebird,Ptiloris victoriae,L2295645,Daintree National Park--Marrdja Botanical Walk,2024-06-12 11:27,2.0,-16.1378839,145.4404838,True,False,False,S180909189,"Madja Boardwalk, LOT 10 Cape Tribulation Rd, Cape Tribulation QLD 4873, Australia",
soucas1,Southern Cassowary,Casuarius casuarius,L2295645,Daintree National Park--Marrdja Botanical Walk,2024-06-12 11:27,2.0,-16.1378839,145.4404838,True,False,False,S180909189,"Madja Boardwalk, LOT 10 Cape Tribulation Rd, Cape Tribulation QLD 4873, Australia",
dusgra1,Dusky Grasswren,Amytornis purnelli,L2562991,Wartapunga Gorge at 22 48 23S 131 32 48E,2024-06-12 11:15,2.0,-22.80638,131.54666,True,False,False,S180917336,5Q9H5GVW+CM,
reefir1,Red-eared Firetail,Stagonopleura oculata,L2537516,Lesmurdie Falls National Park,2024-06-12 11:15,1.0,-31.99468,116.03176,True,False,False,S180917011,"224J+4P Forrestfield WA, Australia",
dusger1,Dusky Gerygone,Gerygone tenebrosa,L1593647,Cape Range National Park--Mangrove Bay,2024-06-12 11:00,3.0,-21.9658616,113.9433079,True,False,False,S180935720,"2WMV+M8 Cape Range National Park WA, Australia",
manfan1,Mangrove Fantail,Rhipidura phasiana,L1593647,Cape Range National Park--Mangrove Bay,2024-06-12 11:00,3.0,-21.9658616,113.9433079,True,False,False,S180935720,"2WMV+M8 Cape Range National Park WA, Australia",
shyhea1,Shy Heathwren,Hylacola cauta,L1400783,Cape Gantheaume Conservation Park--Murray Lagoon,2024-06-12 10:59,1.0,-35.9092783,137.4138185,True,False,False,S180901686,"3CR7+7G MacGillivray SA, Australia",
btnhen1,Black-tailed Nativehen,Tribonyx ventralis,L7227547,Port Arthur Lavender Farm,2024-06-12 10:50,1.0,-43.1064975,147.8642178,True,True,False,S180909535,"6555 Arthur Hwy, Port Arthur TAS 7182, Australia",
piehon1,Pied Honeyeater,Certhionyx variegatus,L2554042,Kilcowera Station - Murder Bore,2024-06-12 10:46,1.0,-28.66829,144.08432,True,False,False,S180913960,5R3683JM+MP,
whtblc1,Baudin's Black-Cockatoo,Zanda baudinii,L948185,Manjimup,2024-06-12 10:38,10.0,-34.2418919,116.1474609,True,False,False,S180909917,"Manjin Park, 53 Mottram St, Manjimup WA 6258, Australia",
whnhon3,Gilbert's Honeyeater,Melithreptus chloropsis,L948185,Manjimup,2024-06-12 10:38,2.0,-34.2418919,116.1474609,True,False,False,S180909917,"Manjin Park, 53 Mottram St, Manjimup WA 6258, Australia",
pincoc1,Pink Cockatoo,Cacatua leadbeateri,L33210560,"Quilpie Thargomindah Rd, Quilpie AU-QLD -26.99090, 144.37282",2024-06-12 10:26,6.0,-26.990897,144.372819,True,False,True,S180931222,5R56295F+J4,
oliwhi1,Olive Whistler,Pachycephala olivacea,L33202898,"7179, Eaglehawk Neck AU-TAS -43.04381, 147.92830",2024-06-12 10:25,1.0,-43.043806,147.928303,True,False,True,S180898759,"XW4H+F8 Eaglehawk Neck TAS, Australia",
blwkoo1,Blue-winged Kookaburra,Dacelo leachii,L29863073,Galloway Plains Rd,2024-06-12 10:25,1.0,-24.023111,151.002167,True,False,True,S180899550,"Galloway Plains Rd, Mount Alma QLD 4680, Australia",
cicada1,Common Cicadabird,Edolisoma tenuirostre,L33203606,"7 Russell Street, Tinaroo, Queensland, AU (-17.167, 145.549)",2024-06-12 10:12,1.0,-17.1669468,145.5492311,True,False,True,S180901647,"7 Russell St, Tinaroo QLD 4872, Australia",
strhon1,Striped Honeyeater,Plectorhyncha lanceolata,L11605378,Fernleigh Track (Jewels),2024-06-12 10:10,1.0,-33.0205668,151.6863297,True,False,False,S180897986,"24 Kalaroo Rd, Belmont North NSW 2280, Australia",
malemu1,Mallee Emuwren,Stipiturus mallee,L1836621,Hattah-Kulkyne National Park--Nowingi Track b/w Old Calder Hwy and Konardin Track,2024-06-12 10:01,1.0,-34.6911519,142.2727855,True,False,False,S180896356,"875F+G4 Hattah VIC, Australia",
alblyr1,Albert's Lyrebird,Menura alberti,L1212569,Lamington National Park--Python Rock track,2024-06-12 09:56,1.0,-28.2257932,153.1277096,True,False,False,S180898996,"Q4FH+M3 O'Reilly QLD, Australia",
parrif1,Paradise Riflebird,Ptiloris paradiseus,L1212569,Lamington National Park--Python Rock track,2024-06-12 09:56,1.0,-28.2257932,153.1277096,True,False,False,S180898996,"Q4FH+M3 O'Reilly QLD, Australia",
soulog1,Australian Logrunner,Orthonyx temminckii,L1212569,Lamington National Park--Python Rock track,2024-06-12 09:56,6.0,-28.2257932,153.1277096,True,False,False,S180898996,"Q4FH+M3 O'Reilly QLD, Australia",
yetscr1,Yellow-throated Scrubwren,Neosericornis citreogularis,L1212569,Lamington National Park--Python Rock track,2024-06-12 09:56,7.0,-28.2257932,153.1277096,True,False,False,S180898996,"Q4FH+M3 O'Reilly QLD, Australia",
mdxmal1,Muscovy Duck x Mallard (hybrid),Cairina moschata x Anas platyrhynchos,L27032987,Waverley Lake Park,2024-06-12 09:52,1.0,-41.4309024,147.1888044,True,False,False,S180886766,"Waverley Lake Park, 6 Naroo St, Waverley TAS 7250, Australia",X
swipar1,Swift Parrot,Lathamus discolor,L33198751,"Aberdare State Forest, Pelton AU-NSW -32.88275, 151.31975",2024-06-12 09:32,2.0,-32.882754,151.31975,True,False,True,S180880440,"4889+VV Pelton NSW, Australia",
rewfai1,Red-winged Fairywren,Malurus elegans,L1653351,"Victoria Dam--Access road, track and picnic area",2024-06-12 09:17,1.0,-32.0408221,116.0668766,True,False,False,S180910787,"X358+MQ Canning Mills WA, Australia",
wesros1,Western Rosella,Platycercus icterotis,L1653351,"Victoria Dam--Access road, track and picnic area",2024-06-12 09:17,1.0,-32.0408221,116.0668766,True,False,False,S180910787,"X358+MQ Canning Mills WA, Australia",
whbrob1,White-breasted Robin,Eopsaltria georgiana,L1653351,"Victoria Dam--Access road, track and picnic area",2024-06-12 09:17,1.0,-32.0408221,116.0668766,True,False,False,S180910787,"X358+MQ Canning Mills WA, Australia",
tachon1,Tawny-crowned Honeyeater,Gliciphila melanops,L2543154,Hanson Bay,2024-06-12 09:07,1.0,-36.01994,136.85394,True,False,False,S180885584,"XVJ3+2H Karatta SA, Australia",
freduc1,Freckled Duck,Stictonetta naevosa,L6781562,Elizabeth Macarthur Agricultural Institute,2024-06-12 09:00,3.0,-34.1272,150.702364,True,False,False,S180911666,"295 Finns Rd, Menangle NSW 2568, Australia",
whlhon1,White-lined Honeyeater,Territornis albilineata,L1120554,Kakadu National Park--Nourlangie Rock,2024-06-12 08:59,1.0,-12.8670227,132.811811,True,False,False,S180909667,5QVJ4RM6+5P,
regbow1,Regent Bowerbird,Sericulus chrysocephalus,L2396086,Cattai Wetlands,2024-06-12 08:59,1.0,-31.8294771,152.6363504,True,False,False,S180902334,"5JCP+6G Coopernook NSW, Australia",
roster,Roseate Tern,Sterna dougallii,L2878851,North Mole (North Fremantle),2024-06-12 08:55,1.0,-32.0538536,115.7254475,True,False,False,S180912622,"WPWG+F5 North Fremantle WA, Australia",
blwpar3,Blue-winged Parrot,Neophema chrysostoma,L29749106,"556 Little Musselroe Rd, Cape Portland AU-TAS (-40.7624,148.0323)",2024-06-12 08:51,1.0,-40.762353,148.032336,True,False,True,S180904003,"Little Musselroe Rd, Cape Portland TAS 7264, Australia",
parpig1,Partridge Pigeon,Geophaps smithii,L33205504,"Kakadu National Park, Kakadu AU-NT -12.86325, 132.80630",2024-06-12 08:51,1.0,-12.86325,132.806297,True,False,True,S180909610,"Nourlangie Rd, Kakadu NT 0822, Australia",
turpar1,Turquoise Parrot,Neophema pulchella,L1192699,Chiltern-Mt Pilot National Park--Bartleys Block,2024-06-12 08:48,5.0,-36.125986,146.6113901,True,False,False,S180887275,"VJF6+JQ Bartley's Block, Chiltern VIC 3683, Australia",
cricha1,Crimson Chat,Epthianura tricolor,L2562655,"Great Northern Hwy at -22.93333, 118.81666",2024-06-12 08:46,6.0,-22.93333,118.81666,True,False,False,S180897236,5P9W3R88+MM,
litwat1,Western Wattlebird,Anthochaera lunulata,L28188893,"Wyuna Crescent, Lesmurdie, Western Australia, AU (-32.006, 116.053)",2024-06-12 08:44,2.0,-32.0060799,116.0531246,True,False,True,S180899610,"22 Wyuna Cres, Lesmurdie WA 6076, Australia",
brucuc1,Brush Cuckoo,Cacomantis variolosus,L986012,Broome Bird Observatory,2024-06-12 08:31,1.0,-17.9752021,122.344662,True,False,False,S180916776,"Broome Bird Observatory, Crab Creek Road, Roebuck WA 6725, Australia",
tawgra3,Tawny Grassbird,Cincloramphus timoriensis,L29817095,"Foxwell swamp, Peeramon, Queensland, AU (-17.321, 145.584)",2024-06-12 08:27,1.0,-17.3205892,145.5838623,True,False,True,S180872622,"213 Ball Rd, Peeramon QLD 4885, Australia",
whbwhi2,White-breasted Whistler,Pachycephala lanioides,L2538188,Crab Creek Mangroves (Roebuck Bay),2024-06-12 08:19,3.0,-17.9897541,122.3708296,True,False,False,S180895911,5QJ4296C+38,
bltwhi1,Black-tailed Whistler,Pachycephala melanura,L2538188,Crab Creek Mangroves (Roebuck Bay),2024-06-12 08:19,1.0,-17.9897541,122.3708296,True,False,False,S180895911,5QJ4296C+38,
cbqthr1,Chestnut-breasted Quail-thrush,Cinclosoma castaneothorax,L33210482,"Quilpie Thargomindah Rd, Quilpie AU-QLD -26.64309, 144.24717",2024-06-12 08:05,2.0,-26.643091,144.247174,True,False,True,S180930934,5R56964W+QV,
palcuc1,Pallid Cuckoo,Cacomantis pallidus,L33210482,"Quilpie Thargomindah Rd, Quilpie AU-QLD -26.64309, 144.24717",2024-06-12 08:05,1.0,-26.643091,144.247174,True,False,True,S180930934,5R56964W+QV,
sansht2,Sandstone Shrikethrush,Colluricincla woodwardi,L7101356,Bigge Island,2024-06-12 08:01,1.0,-14.47583,125.14583,True,False,False,S180945606,5QQ7G4FW+M8,
cherai1,Chestnut Rail,Gallirallus castaneoventris,L7101356,Bigge Island,2024-06-12 08:01,1.0,-14.47583,125.14583,True,False,False,S180945606,5QQ7G4FW+M8,
litwoo4,Little Woodswallow,Artamus minor,L7101356,Bigge Island,2024-06-12 08:01,1.0,-14.47583,125.14583,True,False,False,S180945606,5QQ7G4FW+M8,
torimp1,Torresian Imperial-Pigeon,Ducula spilorrhoa,L7101356,Bigge Island,2024-06-12 08:01,2.0,-14.47583,125.14583,True,False,False,S180945606,5QQ7G4FW+M8,
spobow1,Spotted Bowerbird,Chlamydera maculata,L3011826,Bowra Wildlife Sanctuary,2024-06-12 07:53,2.0,-27.98764,145.60875,True,False,False,S180937384,5R472J65+WF,
hoorob1,Hooded Robin,Melanodryas cucullata,L3011826,Bowra Wildlife Sanctuary,2024-06-12 07:53,4.0,-27.98764,145.60875,True,False,False,S180937384,5R472J65+WF,
gryhon1,Gray Honeyeater,Conopophila whitei,L33202541,"Great Northern Highway, Newman, Western Australia, AU (-23.142, 119.317)",2024-06-12 07:47,2.0,-23.1424602,119.3165851,True,False,True,S180897313,5P8XV858+2J,
auscra1,Australian Crake,Porzana fluminea,L921850,Western Treatment Plant,2024-06-12 07:40,5.0,-37.9979192,144.5917504,True,False,False,S180905922,"2H2R+RP Cocoroc VIC, Australia",
grbher2,Great-billed Heron,Ardea sumatrana,L2453426,"Redden Island (Machans Beach, Cairns)",2024-06-12 07:34,1.0,-16.8613089,145.7523966,True,False,False,S180882670,"2 Cinderella St, Machans Beach QLD 4878, Australia",
gyttat1,Gray-tailed Tattler,Tringa brevipes,L2453426,"Redden Island (Machans Beach, Cairns)",2024-06-12 07:34,2.0,-16.8613089,145.7523966,True,False,False,S180882670,"2 Cinderella St, Machans Beach QLD 4878, Australia",
diafir1,Diamond Firetail,Stagonopleura guttata,L5870759,Capertee National Park--Capertee Cottage,2024-06-12 07:30,3.0,-33.0224459,150.0344038,True,False,False,S180859664,"1046 Port Macquarie Rd, Bogee NSW 2849, Australia",
manhon1,Mangrove Honeyeater,Gavicalis fasciogularis,L2390401,John Oxley Reserve (Murrumba Downs),2024-06-12 07:29,2.0,-27.2677527,153.0038238,True,False,False,S180883096,"4 Ogg Rd, Murrumba Downs QLD 4503, Australia",
rencra1,Red-necked Crake,Rallina tricolor,L3891271,Cape Tribulation Camping,2024-06-12 07:26,1.0,-16.0955069,145.4650955,True,False,False,S180888539,"Cape Tribulation Camping, 3812 Cape Tribulation Rd, Cape Tribulation QLD 4873, Australia",
litcro1,Little Crow,Corvus bennetti,L2553891,Kilcowera Station - Cardenyabba Lagoon,2024-06-12 07:21,1.0,-28.70323,143.94081,True,False,False,S180913871,5R357WWR+P8,
relwhi1,Red-lored Whistler,Pachycephala rufogularis,L33205281,Junction at Pheenys Tracks and Millewa S Bore,2024-06-12 07:20,4.0,-34.703783,141.06238,True,False,True,S180908607,"Pheenys Track, Murray-Sunset VIC 3490, Australia",
chequt1,Chestnut Quail-thrush,Cinclosoma castanotum,L33205281,Junction at Pheenys Tracks and Millewa S Bore,2024-06-12 07:20,16.0,-34.703783,141.06238,True,False,True,S180908607,"Pheenys Track, Murray-Sunset VIC 3490, Australia",
chowch1,Chowchilla,Orthonyx spaldingii,L8337047,Ringtail Crossing Nature Refuge (restricted access),2024-06-12 07:12,1.0,-17.469405,145.5401838,True,False,False,S180882115,"540 Kenny Rd, Tarzali QLD 4885, Australia",
golbow1,Golden Bowerbird,Prionodura newtoniana,L8337047,Ringtail Crossing Nature Refuge (restricted access),2024-06-12 07:12,1.0,-17.469405,145.5401838,True,False,False,S180882115,"540 Kenny Rd, Tarzali QLD 4885, Australia",
cqrpig1,Chestnut-quilled Rock-Pigeon,Petrophassa rufipennis,L2538937,Kakadu National Park--Nawurlandja Lookout,2024-06-12 07:07,4.0,-12.86056,132.79278,True,False,False,S180909510,"Nawurlandja Trl, Kakadu NT 0822, Australia",
chbcuc2,Channel-billed Cuckoo,Scythrops novaehollandiae,L2538937,Kakadu National Park--Nawurlandja Lookout,2024-06-12 07:07,1.0,-12.86056,132.79278,True,False,False,S180909510,"Nawurlandja Trl, Kakadu NT 0822, Australia",
squpig1,Squatter Pigeon,Geophaps scripta,L29859699,Alarm Crk,2024-06-12 07:06,1.0,-24.019991,150.919214,True,False,True,S180899051,"Mount Alma Rd, Mount Alma QLD 4680, Australia",
litcur,Little Curlew,Numenius minutus,L22773479,Bundegi Coastal Park (North West Cape),2024-06-12 07:00,1.0,-21.8639204,114.1449515,True,False,False,S180938285,"44PV+CX North West Cape WA, Australia",
comgre,Common Greenshank,Tringa nebularia,L22773479,Bundegi Coastal Park (North West Cape),2024-06-12 07:00,1.0,-21.8639204,114.1449515,True,False,False,S180938285,"44PV+CX North West Cape WA, Australia",
rucemu1,Rufous-crowned Emuwren,Stipiturus ruficeps,L2561754,Cape Range--SS Mildura Wreck,2024-06-12 07:00,3.0,-21.78639,114.16472,True,False,False,S180934968,"6577+CV North West Cape WA, Australia",
banhon1,Banded Honeyeater,Cissomela pectoralis,L32149822,"Kimbolton Road, Kimbolton, Western Australia, AU (-16.69, 123.838)",2024-06-12 06:53,1.0,-16.6899786,123.8375698,True,False,True,S180877973,5QM58R6Q+22,
grcgre1,Great Crested Grebe,Podiceps cristatus,L941549,Crater Lakes National Park--Lake Barrine,2024-06-12 06:51,4.0,-17.2458518,145.6392395,True,False,False,S180911641,"Gordonvale - Atherton Road, Lake Barrine QLD 4884, Australia",
sponig1,Spotted Nightjar,Eurostopodus argus,L1175700,Kakadu National Park--Bowali Visitors Centre,2024-06-12 06:31,1.0,-12.6741922,132.8171539,True,False,False,S180909471,5QVJ8RG8+8V,
rebpar6,Red-browed Pardalote,Pardalotus rubricatus,L7461210,Radio Hill (Newman),2024-06-12 06:23,1.0,-23.3627044,119.7255385,True,False,False,S180875774,5P8XJPPG+W6,
rufgra1,Rufous Grasswren,Amytornis whitei,L7461210,Radio Hill (Newman),2024-06-12 06:23,4.0,-23.3627044,119.7255385,True,False,False,S180875774,5P8XJPPG+W6,
auonig1,Australian Owlet-nightjar,Aegotheles cristatus,L16972848,"75 Bridgemary Crescent, Girraween AU-NT -12.53475, 131.11674",2024-06-12 03:11,1.0,-12.534747,131.116736,True,False,True,S180919466,"75 Bridgemary Cres, Girraween NT 0836, Australia",
barowl1,Barking Owl,Ninox connivens,L31918360,"2 Moondarga Dr, Cranbrook AU-QLD -19.31549, 146.74444",2024-06-11 23:30,1.0,-19.315494,146.744441,True,False,True,S180771749,"2 Moondarga Dr, Cranbrook QLD 4814, Australia",
rufowl2,Rufous Owl,Ninox rufa,L1175729,Mangroves near Orchard Rd (Coconut Grove),2024-06-11 21:05,1.0,-12.396642,130.847231,True,False,False,S180746078,"21 Orchard Rd, Coconut Grove NT 0810, Australia",
litpen1,Little Penguin,Eudyptula minor,L8285074,Redbill Beach,2024-06-11 18:37,12.0,-41.86545,148.287363,True,False,False,S180727272,"47MP+RW Bicheno TAS, Australia",
pagplo,Pacific Golden-Plover,Pluvialis fulva,L33164216,Northern beach,2024-06-11 18:09,1.0,-9.749403,143.41759,True,False,True,S180724857,"131 Williams Rd, Masig Island QLD 4875, Australia",
wantat1,Wandering Tattler,Tringa incana,L33164216,Northern beach,2024-06-11 18:09,1.0,-9.749403,143.41759,True,False,True,S180724857,"131 Williams Rd, Masig Island QLD 4875, Australia",
norros1,Northern Rosella,Platycercus venustus,L8905049,"Acacia Hills, Northern Territory, AU (-12.708, 131.093)",2024-06-11 17:41,1.0,-12.7078529,131.0933522,True,False,True,S180725121,"70 Affleck Rd, Acacia Hills NT 0822, Australia",
gryfal1,Gray Falcon,Falco hypoleucos,L33164199,"1518–1562 Diamantina Developmental Rd, Quilpie AU-QLD -26.62198, 143.94703",2024-06-11 17:10,1.0,-26.621985,143.947031,True,False,True,S180725180,5R559WHW+6R,
gyfhon1,Gray-fronted Honeyeater,Ptilotula plumula,L2540467,"Lajamanu at -18.33499, 130.63222",2024-06-11 16:50,,-18.33499,130.63222,True,False,False,S180744242,"11 Kiwinyi Cres, Lajamanu NT 0852, Australia",
masfin1,Masked Finch,Poephila personata,L9853688,Muirhead bushland,2024-06-11 16:41,2.0,-12.3481995,130.8955711,True,False,False,S180727255,"544 Lee Point Rd, Lee Point NT 0810, Australia",
babhon1,Bar-breasted Honeyeater,Ramsayornis fasciatus,L9853688,Muirhead bushland,2024-06-11 16:41,4.0,-12.3481995,130.8955711,True,False,False,S180727255,"544 Lee Point Rd, Lee Point NT 0810, Australia",
gnbger1,Green-backed Gerygone,Gerygone chloronota,L1395451,Bicentennial Park (Darwin),2024-06-11 16:22,3.0,-12.4632658,130.8371707,True,False,False,S180918733,"109 Esplanade, Darwin City NT 0800, Australia",
bbfdov2,Black-banded Fruit-Dove,Ptilinopus alligator,L1120554,Kakadu National Park--Nourlangie Rock,2024-06-11 16:21,2.0,-12.8670227,132.811811,True,False,False,S180731227,5QVJ4RM6+5P,
paibut,Painted Buttonquail,Turnix varius,L2537331,Curtin University Technology,2024-06-11 15:35,1.0,-32.00833,115.89166,True,False,False,S180723045,"XVRR+MM Bentley WA, Australia",
wqrpig1,White-quilled Rock-Pigeon,Petrophassa albipennis,L7880243,Mirima National Park,2024-06-11 15:30,3.0,-15.763609,128.752007,True,False,False,S180726642,"6QP2+HR Kununurra WA, Australia",
hudgod,Hudsonian Godwit,Limosa haemastica,L9637306,Arthur Davis Park (Brighton),2024-06-11 15:30,1.0,-27.312142,153.069133,True,True,False,S180724244,"231 Flinders Parade, Sandgate QLD 4017, Australia",
lewrai1,Lewin's Rail,Lewinia pectoralis,L33162697,Creekline along Lindbeck Cnr,2024-06-11 15:13,1.0,-35.428423,149.240067,True,False,True,S180718948,"21 Lindbeck Cor, Googong NSW 2620, Australia",
pacbaz1,Pacific Baza,Aviceda subcristata,L17688135,Jar Island,2024-06-11 15:06,1.0,-14.1552266,126.2419722,True,False,False,S180944115,5QQ8R6VR+WQ,
redgos1,Red Goshawk,Erythrotriorchis radiatus,L33165300,Amrun,2024-06-11 15:01,1.0,-12.885519,141.718651,True,False,True,S180728286,5RV34P79+QF,
blbbut1,Black-backed Butcherbird,Cracticus mentalis,L33165300,Amrun,2024-06-11 15:01,1.0,-12.885519,141.718651,True,False,True,S180728286,5RV34P79+QF,
wescor1,Western Corella,Cacatua pastinator,L3621185,Red Lake,2024-06-11 14:28,2.0,-34.4324152,116.6612005,True,False,True,S180725129,"HM96+2F Mordalup WA, Australia",
fernwr1,Fernwren,Oreoscopus gutturalis,L4879621,Davies Creek National Park--Kahlpahlim Rock Trail carpark,2024-06-11 14:13,2.0,-17.0367171,145.613369,True,False,False,S180716026,"XJ77+68 Kahlpahlim Rock Trail head, Mareeba QLD 4880, Australia",
glbcoc1,Glossy Black-Cockatoo,Calyptorhynchus lathami,L1466737,"Greenmount Ct, Mt Samson (roadside birding)",2024-06-11 14:12,3.0,-27.3116493,152.836005,True,False,False,S180723757,"Greenmount Ct, Mount Samson QLD 4520, Australia",
strgra2,Striated Grasswren,Amytornis striatus,L1836621,Hattah-Kulkyne National Park--Nowingi Track b/w Old Calder Hwy and Konardin Track,2024-06-11 13:57,2.0,-34.6911519,142.2727855,True,False,False,S180716937,"875F+G4 Hattah VIC, Australia",
yelcha1,Yellow Chat,Epthianura crocea,L989143,Kidney Bean Claypan and Duck Lake,2024-06-11 13:56,14.0,-17.9771,122.42084,True,False,False,S180753738,5QJ42CFC+58,
flushe1,Fluttering Shearwater,Puffinus gavia,L5415082,13th Beach between 32W and The Bluff,2024-06-11 13:45,1.0,-38.288724,144.4885397,True,False,True,S180712451,"PF6Q+GC Barwon Heads VIC, Australia",
bansti1,Banded Stilt,Cladorhynchus leucocephalus,L921850,Western Treatment Plant,2024-06-11 13:32,2.0,-37.9979192,144.5917504,True,False,False,S180716392,"2H2R+RP Cocoroc VIC, Australia",
souful1,Southern Fulmar,Fulmarus glacialoides,L24066809,"Tasman Sea, Cape Pillar AU-TAS (-43.2197,148.0328)",2024-06-11 13:15,2.0,-43.21973,148.032766,True,False,True,S180724204,"Q2JM+44 Cape Pillar TAS, Australia",
whbrob2,White-browed Robin,Poecilodryas superciliosa,L9066318,"Jack Bethel Park, Mareeba",2024-06-11 12:30,1.0,-16.9886193,145.4264726,True,False,False,S180709843,"28 Sutherland St, Mareeba QLD 4880, Australia",
mallee1,Malleefowl,Leipoa ocellata,L33158374,"3420, Telopea Downs AU-VIC (-35.9346,141.1615)",2024-06-11 11:28,1.0,-35.934645,141.161481,True,False,True,S180700126,"3586+4H Telopea Downs VIC, Australia",
elepar1,Elegant Parrot,Neophema elegans,L2537103,Willochra Creek at Arden Vale Rd,2024-06-11 11:19,2.0,-32.06882,138.13985,True,False,False,S180941759,"W4JQ+FW Kanyaka SA, Australia",
athscr1,Atherton Scrubwren,Sericornis keri,L3594363,Mount Hypipamee National Park--picnic area,2024-06-11 11:15,4.0,-17.428377,145.4862205,True,False,False,S180897965,"HFCP+JF Upper Barron QLD, Australia",
moutho1,Mountain Thornbill,Acanthiza katherina,L3594363,Mount Hypipamee National Park--picnic area,2024-06-11 11:15,2.0,-17.428377,145.4862205,True,False,False,S180897965,"HFCP+JF Upper Barron QLD, Australia",
banwhi1,Banded Whiteface,Aphelocephala nigricincta,L33213604,"17303–17305 Great Northern Hwy, Meekatharra AU-WA (-26.3136,118.6388)",2024-06-11 10:37,2.0,-26.313634,118.638817,True,False,True,S180945398,5P5WMJPQ+GG,
rutbuh1,Pale-vented Bush-hen,Amaurornis moluccana,L3135740,Guyatt Park (St Lucia),2024-06-11 10:24,1.0,-27.4933114,153.0014741,True,False,False,S180690150,"29 Hiron St, St Lucia QLD 4067, Australia",
dusrob1,Dusky Robin,Melanodryas vittata,L2547853,South Bruny National Park--Fluted Cape,2024-06-11 10:17,3.0,-43.3605081,147.3730087,True,False,False,S180721188,"J9QF+Q6 South Bruny TAS, Australia",
eurgre1,European Greenfinch,Chloris chloris,L2868176,Cranwell Park,2024-06-11 10:10,2.0,-37.7774651,144.8591888,True,False,False,S180711719,"Cranwell Park Dog Off Leash Area, 56 Cranwell St, Braybrook VIC 3019, Australia",N
yeecus1,Barred Cuckooshrike,Coracina lineata,L928828,Crater Lakes National Park--Lake Eacham,2024-06-11 10:10,1.0,-17.2857129,145.6286654,True,False,False,S180709957,"PJ7H+PF Lake Eacham QLD, Australia",
tobcat2,Tooth-billed Bowerbird,Scenopoeetes dentirostris,L928828,Crater Lakes National Park--Lake Eacham,2024-06-11 10:10,1.0,-17.2857129,145.6286654,True,False,False,S180709957,"PJ7H+PF Lake Eacham QLD, Australia",
baicra1,Baillon's Crake,Zapornia pusilla,L26378640,McCoys creek Park,2024-06-11 10:06,1.0,-27.8427138,153.3307615,True,False,True,S180695560,"Edgewater One, 23 Park Esplanade, Coomera QLD 4209, Australia",
limalb1,Light-mantled Albatross,Phoebetria palpebrata,L33161184,"35 Amadeus Crescent, Port Kennedy, Western Australia, AU (-32.353, 115.769)",2024-06-11 09:39,1.0,-32.3528884,115.7689185,True,True,True,S180712208,"35 Amadeus Cres, Port Kennedy WA 6172, Australia",
zitcis1,Zitting Cisticola,Cisticola juncidis,L3019838,Twelve Mile Creek Fishing Reserve (Marmor),2024-06-11 08:59,2.0,-23.67528,150.75333,True,False,False,S180682694,"8QF3+V8 Marmor QLD, Australia",
goufin3,Gouldian Finch,Chloebia gouldiae,L3021055,King River Road,2024-06-11 08:58,11.0,-15.578578,128.1411093,True,False,False,S180722020,"King River Rd, Wyndham WA 6740, Australia",
lotfin1,Long-tailed Finch,Poephila acuticauda,L3021055,King River Road,2024-06-11 08:58,58.0,-15.578578,128.1411093,True,False,False,S180722020,"King River Rd, Wyndham WA 6740, Australia",
whbcra1,White-browed Crake,Poliolimnas cinereus,L3021055,King River Road,2024-06-11 08:58,3.0,-15.578578,128.1411093,True,False,False,S180722020,"King River Rd, Wyndham WA 6740, Australia",
spqthr1,Spotted Quail-thrush,Cinclosoma punctatum,L3962502,Samford Valley Rail Trail--Lanita Rd to McLean Rd South,2024-06-11 08:06,1.0,-27.3966039,152.910107,True,False,False,S180707365,"Samford Cycle Link, 247 Lanita Rd, Ferny Hills QLD 4055, Australia",
lessap2,Siberian Sand-Plover,Anarhynchus mongolus,L9637306,Arthur Davis Park (Brighton),2024-06-11 08:03,5.0,-27.312142,153.069133,True,False,False,S180692395,"231 Flinders Parade, Sandgate QLD 4017, Australia",
chbqut1,Western Quail-thrush,Cinclosoma marginatum,L33213572,"Great Northern Hwy, Peak Hill AU-WA (-25.9816,118.7577)",2024-06-11 07:44,1.0,-25.981572,118.757671,True,False,True,S180945209,5P6W2Q95+93,
helgui,Helmeted Guineafowl,Numida meleagris,L4780219,Caravonica,2024-06-11 07:44,1.0,-16.8642509,145.686543,True,False,False,S180679262,"4MPP+7J Caravonica QLD, Australia",X
comter,Common Tern,Sterna hirundo,L33152212,"26-28 Church Street, Tinaroo, Queensland, AU (-17.168, 145.548)",2024-06-11 07:28,1.0,-17.1680172,145.5484556,True,False,True,S180671626,"26-28 Church St, Tinaroo QLD 4872, Australia",
chbwhi1,Chestnut-breasted Whiteface,Aphelocephala pectoralis,L1664024,William Hutchinson Memorial,2024-06-11 07:25,4.0,-29.0739499,134.8541951,True,False,False,S180718334,5Q2PWVG3+CM,
pilotb1,Pilotbird,Pycnoptilus floccosus,L20934685,Brogo Reserve (restricted access),2024-06-11 07:10,2.0,-36.509598,149.779357,True,False,True,S180700784,"FQRH+5P Brogo NSW, Australia",
grsplo,Greater Sand-Plover,Anarhynchus leschenaultii,L17211408,Vansittart Bay (C53 wreck),2024-06-11 07:08,1.0,-14.1283333,126.3091667,True,False,False,S180706658,5QQ8V8C5+MM,
chrhea1,Chestnut-rumped Heathwren,Hylacola pyrrhopygia,L3362267,"Whiskers Creek Rd, Carwoola",2024-06-11 06:49,2.0,-35.4085,149.361577,True,False,False,S180720764,"H9R6+JJ Carwoola NSW, Australia",
rutthr1,Russet-tailed Thrush,Zoothera heinei,L3861220,"Koompartoo Retreat, Bellingen",2024-06-11 06:17,2.0,-30.4586368,152.8957857,True,False,False,S180650058,"10 Dudley St, Bellingen NSW 2454, Australia",
varlor1,Varied Lorikeet,Psitteuteles versicolor,L2539525,Mornington Wildlife Sanctuary,2024-06-11 05:07,3.0,-17.5090801,126.1029394,True,False,False,S180756811,5QJ8F4R3+95,
hoopar1,Hooded Parrot,Psephotellus dissimilis,L1142379,Pine Creek,2024-06-10 18:21,1.0,-13.8225783,131.8334055,True,False,False,S180537191,"91 A Main Terrace, Pine Creek NT 0847, Australia",
tabhon1,Tawny-breasted Honeyeater,Xanthotis flaviventer,L2533880,Jardine River National Park--Eliot and Twin Falls,2024-06-10 17:47,3.0,-11.38529,142.41388,True,False,False,S180701319,"Elliot Creek. Cape York, Overland Telegraph Line, Shelburne QLD 4874, Australia",
whshon1,White-streaked Honeyeater,Trichodere cockerelli,L2533880,Jardine River National Park--Eliot and Twin Falls,2024-06-10 17:47,2.0,-11.38529,142.41388,True,False,False,S180701319,"Elliot Creek. Cape York, Overland Telegraph Line, Shelburne QLD 4874, Australia",
bktgod,Black-tailed Godwit,Limosa limosa,L1051412,Monkey Mia,2024-06-10 17:15,2.0,-25.7968001,113.7130451,True,False,False,S180547352,"6P37+76 Monkey Mia WA, Australia",
rufbri1,Rufous Bristlebird,Dasyornis broadbenti,L5173294,Aireys Inlet Clifftop Walk,2024-06-10 16:30,1.0,-38.4620138,144.1092137,True,False,False,S180591758,"63-64 Eagle Rock Parade, Aireys Inlet VIC 3231, Australia",
oracha1,Orange Chat,Epthianura aurifrons,L33121186,Windorah Road approximately 10 km from Birdsville,2024-06-10 16:25,5.0,-25.8489031,139.5899304,True,False,True,S180538972,5Q6X5H2Q+CX,
ausgro1,Australasian Grass-Owl,Tyto longimembris,L17028827,Everlasting Swamp National Park--Weir Rd (Woody Creek),2024-06-10 16:02,1.0,-29.5020386,153.0666941,True,False,False,S180536133,"F3X8+5M Lower Southgate NSW, Australia",
scrubt2,Scrubtit,Acanthornis magna,L1433768,Mavista Nature Walk,2024-06-10 15:42,1.0,-43.3777402,147.3214596,True,False,False,S180531835,"Mavista Picnic Area & Walking Track, Resolution Rd, Adventure Bay TAS 7150, Australia",
descha1,Gibber Chat,Ashbyia lovensis,L33122639,"9058 Birdsville Developmental Rd, Tanbar AU-QLD -25.71035, 140.93463",2024-06-10 15:30,1.0,-25.710352,140.934627,True,False,True,S180544905,5R627WQM+VV,
fospar1,Forty-spotted Pardalote,Pardalotus quadragintus,L942969,Inala (restricted access),2024-06-10 15:27,1.0,-43.3892691,147.2515583,True,False,False,S180530017,"Inala Jurassic Garden, 320 Cloudy Bay Rd, South Bruny TAS 7150, Australia",
x00809,Musk x Rainbow Lorikeet (hybrid),Glossopsitta concinna x Trichoglossus moluccanus,L2547363,Tailrace Park,2024-06-10 15:24,2.0,-41.42173,147.11425,True,False,False,S180529450,"H4H7+8M Trevallyn TAS, Australia",
stuqua1,Stubble Quail,Coturnix pectoralis,L26885679,Flinders University--Forest Walk,2024-06-10 15:17,3.0,-35.024661,138.575017,True,False,False,S180531094,"XHGG+42 Bedford Park SA, Australia",
litter1,Little Tern,Sternula albifrons,L1341466,Muttonbird Island Nature Reserve,2024-06-10 14:57,1.0,-30.3053362,153.1509268,True,True,False,S180525546,"Muttonbird Island Nature Reserve, 32 Marina Dr, Coffs Harbour NSW 2450, Australia",
westho1,Western Thornbill,Acanthiza inornata,L33118914,"Joshua Mews Bushland, Baskerville AU-WA",2024-06-10 12:42,6.0,-31.798869,116.075665,True,False,True,S180529771,"36 Joshua Mews, Baskerville WA 6083, Australia",
bkttre1,Black-tailed Treecreeper,Climacteris melanurus,L19068547,"Buntine Highway, Victoria River, Northern Territory, AU (-16.392, 131.889)",2024-06-10 11:24,2.0,-16.3923333,131.889105,True,False,True,S180532781,5QMHJV5Q+3J,
yenalb3,Indian Yellow-nosed Albatross,Thalassarche carteri,L18566416,St Helens Conservation Area--Beerbarrel Beach Track,2024-06-10 11:19,2.0,-41.2758489,148.3580731,True,False,False,S180511060,"P9F5+M6 Akaroa TAS, Australia",
parjae,Parasitic Jaeger,Stercorarius parasiticus,L2878851,North Mole (North Fremantle),2024-06-10 11:00,1.0,-32.0538536,115.7254475,True,False,False,S180547584,"WPWG+F5 North Fremantle WA, Australia",
recbut1,Red-chested Buttonquail,Turnix pyrrhothorax,L33119999,"Great Dividing Range, Clifford",2024-06-10 10:52,2.0,-26.283607,149.318647,True,False,True,S180533800,"P889+HF Clifford QLD, Australia",
gilwhi1,Gilbert's Whistler,Pachycephala inornata,L33113481,"Campbell Road, Huntly North, Victoria, AU (-36.546, 144.355)",2024-06-10 10:44,2.0,-36.5455847,144.3553323,True,False,True,S180506139,"F934+Q4 Huntly North VIC, Australia",
rocwar1,Rockwarbler,Origma solitaria,L33111550,"256–370 Heaton Rd, Quorrobolong AU-NSW -32.96278, 151.39628",2024-06-10 10:24,1.0,-32.962776,151.396278,True,False,True,S180497245,"29PW+VG Quorrobolong NSW, Australia",
faipri1,Fairy Prion,Pachyptila turtur,L29038518,Kingscliff Seawall,2024-06-10 10:15,1.0,-28.2565958,153.5844112,True,False,True,S180504825,"2 Marine Parade, Kingscliff NSW 2487, Australia",
ciqthr1,Cinnamon Quail-thrush,Cinclosoma cinnamomeum,L33122194,Highway A1,2024-06-10 10:10,1.0,-32.9234302,136.9348226,True,False,True,S180542788,"3WGM+JW Gilles Downs SA, Australia",
shtsan,Sharp-tailed Sandpiper,Calidris acuminata,L2591344,Western Treatment Plant--Western Lagoons,2024-06-10 10:01,7.0,-38.0426849,144.5231031,True,False,False,S180506046,"Gate 2 - Bird Watching WTP, Twentynine Mile Rd, Point Wilson VIC 3212, Australia",
x00810,Scaly-breasted x Rainbow Lorikeet (hybrid),Trichoglossus chlorolepidotus x moluccanus,L3927999,Plenty Gorge Park--southern section,2024-06-10 09:34,1.0,-37.6839562,145.0960064,True,True,False,S180508082,"838W+CC Bundoora VIC, Australia",
angpet1,Southern Giant-Petrel,Macronectes giganteus,L2547423,Cape Nelson Lighthouse Reserve,2024-06-10 08:59,1.0,-38.43147,141.54356,True,False,False,S180502554,"Cape Nelson Lighthouse, Cape Nelson Rd, Portland West VIC 3305, Australia",
rufsht2,Arafura Shrikethrush,Colluricincla megarhyncha,L2032310,Litchfield Tourist Park,2024-06-10 08:54,2.0,-13.0245757,130.9537375,True,False,False,S180538722,"Litchfield Tourist Park, 705 Litchfield Park Rd, Rum Jungle NT 0822, Australia",
litbut1,Little Buttonquail,Turnix velox,L2563181,Newhaven Sanctuary,2024-06-10 08:37,2.0,-22.72299,131.15203,True,False,False,S180863675,"Gurner, Lake Mackay NT 0872, Australia",
eyrgra1,Eyrean Grasswren,Amytornis goyderi,L33122542,"Birdsville Simpson Desert National Park Rd, Birdsville AU-QLD -25.92523, 139.13059",2024-06-10 08:13,1.0,-25.925228,139.130588,True,False,True,S180544458,"Birdsville Simpson Desert National Park Rd, Birdsville QLD 4482, Australia",
blbbut2,Black-breasted Buttonquail,Turnix melanogaster,L3012189,Inskip Point,2024-06-10 06:59,3.0,-25.81,153.04833,True,False,False,S180487413,"52QX+X8 Inskip QLD, Australia",
rudtur,Ruddy Turnstone,Arenaria interpres,L4986891,Bare Sand Island,2024-06-10 06:58,2.0,-12.5374,130.4198,True,False,False,S180723899,"FC79+2W Bynoe Harbour NT, Australia",
lesfri,Lesser Frigatebird,Fregata ariel,L4986891,Bare Sand Island,2024-06-10 06:58,50.0,-12.5374,130.4198,True,False,False,S180723899,"FC79+2W Bynoe Harbour NT, Australia",
bltfin1,Black-throated Finch,Poephila cincta,L33064466,FCS - Site 7 - Honeyeater Creek,2024-06-10 06:30,8.0,-18.530342,143.336265,True,False,True,S180903214,"F89P+VG Northhead QLD, Australia",
inldot2,Inland Dotterel,Peltohyas australis,L33117960,"0872, Ghan AU-NT -25.10858, 135.41524",2024-06-10 06:02,1.0,-25.108583,135.415237,True,False,True,S180525685,5Q6QVCR8+H3,
marfro1,Marbled Frogmouth,Podargus ocellatus,L2311577,Great Sandy National Park--Bymien Picnic Area,2024-06-09 21:09,2.0,-25.9541577,153.1044817,True,False,False,S180564341,"24W3+8Q Cooloola QLD, Australia",
ausbit1,Australasian Bittern,Botaurus poiciloptilus,L2591344,Western Treatment Plant--Western Lagoons,2024-06-09 16:46,1.0,-38.0426849,144.5231031,True,False,False,S180319683,"Gate 2 - Bird Watching WTP, Twentynine Mile Rd, Point Wilson VIC 3212, Australia",
lewkit1,Letter-winged Kite,Elanus scriptus,L33060887,"Birdsville Tk, Clifton Hills Station AU-SA -26.67206, 139.62801",2024-06-09 16:37,3.0,-26.672061,139.628007,True,False,True,S180287864,"Birdsville Track, Clifton Hills Station SA 5733, Australia",
masboo,Masked Booby,Sula dactylatra,L33063015,"Timor Sea, AU (-12.367, 122.942)",2024-06-09 15:43,1.0,-12.3672727,122.9416531,True,False,True,S180295643,5QV4JWMR+3M,
faiter2,Australian Fairy Tern,Sternula nereis,L1051412,Monkey Mia,2024-06-09 14:39,6.0,-25.7968001,113.7130451,True,False,False,S180514811,"6P37+76 Monkey Mia WA, Australia",
easbri1,Eastern Bristlebird,Dasyornis brachypterus,L962364,Budderoo National Park--Budderoo Fire Trail,2024-06-09 14:10,3.0,-34.6467662,150.6985188,True,False,False,S180492026,"9M3X+7C Budderoo NSW, Australia",
shtshe,Short-tailed Shearwater,Ardenna tenuirostris,L33060005,"Tasman Sea, Fortescue AU-TAS (-43.0784,148.0458)",2024-06-09 13:30,1.0,-43.078365,148.045791,True,False,True,S180284940,"W2CW+M8 Fortescue TAS, Australia",
hutshe1,Hutton's Shearwater,Puffinus huttoni,L33099440,"Coral Sea off Cape Moreton at -27.01016, 153.78391",2024-06-09 13:14,2.0,-27.010161,153.783909,True,False,True,S180445981,5R4MXQQM+WH,
solpet1,Providence Petrel,Pterodroma solandri,L1341470,Lord Howe Island Airport,2024-06-09 13:07,2.0,-31.5405728,159.078217,True,False,False,S180616855,"1 Airport Rd, Lord Howe Island NSW 2898, Australia",
sufdov1,Superb Fruit-Dove,Ptilinopus superbus,L1121698,Uki,2024-06-09 12:50,2.0,-28.4129,153.338,True,False,False,S180264864,"5 Mitchell St, Uki NSW 2484, Australia",
wetshe,Wedge-tailed Shearwater,Ardenna pacifica,L19263811,"59 Malvina Pde, Lake Haven AU-NSW -33.24401, 151.51517",2024-06-09 12:17,1.0,-33.244006,151.515167,True,False,True,S180263511,"59 Malvina Parade, Lake Haven NSW 2263, Australia",
bbspet1,Black-bellied Storm-Petrel,Fregetta tropica,L33099338,"Coral Sea off Cape Moreton at -27.02205, 153.85406",2024-06-09 11:47,1.0,-27.02205,153.854061,True,False,True,S180445588,5R4MXVH3+5J,
ruftre3,Rufous Treecreeper,Climacteris rufus,L33057156,"Marri Rd, Williams AU-WA -32.78464, 116.92467",2024-06-09 11:33,2.0,-32.784637,116.924666,True,False,True,S180272026,"6W8F+4V Williams WA, Australia",
thbgra4,Thick-billed Grasswren,Amytornis modestus,L2554816,Witchelina,2024-06-09 11:15,2.0,-30.02149,138.0446,True,False,False,S180284206,"2642 Mulgaria Rd, Witchelina SA 5733, Australia",
rebbut2,Red-backed Buttonquail,Turnix maculosus,L33058578,"Buntine Highway, Buchanan, Northern Territory, AU (-18.025, 129.013)",2024-06-09 10:49,1.0,-18.0249006,129.0127541,True,False,True,S180278152,"National Route 96, Buchanan NT 0852, Australia",
lohrai1,Lord Howe Rail,Gallirallus sylvestris,L32787107,"46 Neds Beach Road, Lord Howe Island, New South Wales, AU (-31.522, 159.063)",2024-06-09 10:49,1.0,-31.5222209,159.0627472,True,False,True,S180616694,"46 Neds Beach Rd, Lord Howe Island NSW 2898, Australia",
x00707,Eastern x Pale-headed Rosella (hybrid),Platycercus eximius x adscitus,L33063582,"6499–6881 Copeton Dam Rd, Keera AU-NSW -29.95764, 150.72849",2024-06-09 10:42,1.0,-29.957641,150.728493,True,True,True,S180297721,"Copeton Dam Rd, Keera NSW 2404, Australia",
sooshe,Sooty Shearwater,Ardenna grisea,L33052993,"Whale Watching AU (-38.55, 145.23)",2024-06-09 10:26,2.0,-38.5503235,145.2296906,True,True,True,S180254987,"C6XH+VV Ventnor VIC, Australia",
wfspet,White-faced Storm-Petrel,Pelagodroma marina,L33099251,"Coral Sea off Cape Moreton at -27.03005, 153.85660",2024-06-09 10:22,1.0,-27.030048,153.856598,True,False,True,S180445217,5R4MXV94+XJ,
cappet,Cape Petrel,Daption capense,L33054881,"Auto selected -29.45145, 153.82111",2024-06-09 08:38,1.0,-29.451445,153.821113,True,True,True,S180262677,5R2MGRXC+CC,
soppet1,Soft-plumaged Petrel,Pterodroma mollis,L33059933,"Tasman Sea, Cape Pillar AU-TAS (-43.1992,148.2331)",2024-06-09 08:20,2.0,-43.199243,148.233093,True,False,True,S180284202,4R8CR62M+86,
grapet,Gray Petrel,Procellaria cinerea,L33059933,"Tasman Sea, Cape Pillar AU-TAS (-43.1992,148.2331)",2024-06-09 08:20,1.0,-43.199243,148.233093,True,False,True,S180284202,4R8CR62M+86,
codpet1,Common Diving-Petrel,Pelecanoides urinatrix,L33059933,"Tasman Sea, Cape Pillar AU-TAS (-43.1992,148.2331)",2024-06-09 08:20,2.0,-43.199243,148.233093,True,False,True,S180284202,4R8CR62M+86,
royalb3,Northern Royal Albatross,Diomedea sanfordi,L33059933,"Tasman Sea, Cape Pillar AU-TAS (-43.1992,148.2331)",2024-06-09 08:20,1.0,-43.199243,148.233093,True,False,True,S180284202,4R8CR62M+86,
whhpet1,White-headed Petrel,Pterodroma lessonii,L33059933,"Tasman Sea, Cape Pillar AU-TAS (-43.1992,148.2331)",2024-06-09 08:20,15.0,-43.199243,148.233093,True,False,True,S180284202,4R8CR62M+86,
blupet1,Blue Petrel,Halobaena caerulea,L33059933,"Tasman Sea, Cape Pillar AU-TAS (-43.1992,148.2331)",2024-06-09 08:20,4.0,-43.199243,148.233093,True,False,True,S180284202,4R8CR62M+86,
antalb1,Antipodean Albatross,Diomedea antipodensis,L33059933,"Tasman Sea, Cape Pillar AU-TAS (-43.1992,148.2331)",2024-06-09 08:20,4.0,-43.199243,148.233093,True,False,True,S180284202,4R8CR62M+86,
gybstp1,Gray-backed Storm-Petrel,Garrodia nereis,L33059933,"Tasman Sea, Cape Pillar AU-TAS (-43.1992,148.2331)",2024-06-09 08:20,13.0,-43.199243,148.233093,True,False,True,S180284202,4R8CR62M+86,
grwpet3,Great-winged Petrel,Pterodroma macroptera,L33059933,"Tasman Sea, Cape Pillar AU-TAS (-43.1992,148.2331)",2024-06-09 08:20,25.0,-43.199243,148.233093,True,False,True,S180284202,4R8CR62M+86,
grwpet2,Gray-faced Petrel,Pterodroma gouldi,L33059933,"Tasman Sea, Cape Pillar AU-TAS (-43.1992,148.2331)",2024-06-09 08:20,10.0,-43.199243,148.233093,True,False,True,S180284202,4R8CR62M+86,
wespet1,Westland Petrel,Procellaria westlandica,L33059933,"Tasman Sea, Cape Pillar AU-TAS (-43.1992,148.2331)",2024-06-09 08:20,4.0,-43.199243,148.233093,True,True,True,S180284202,4R8CR62M+86,
royalb2,Southern Royal Albatross,Diomedea epomophora,L33059933,"Tasman Sea, Cape Pillar AU-TAS (-43.1992,148.2331)",2024-06-09 08:20,1.0,-43.199243,148.233093,True,False,True,S180284202,4R8CR62M+86,
slbpri1,Slender-billed Prion,Pachyptila belcheri,L33059933,"Tasman Sea, Cape Pillar AU-TAS (-43.1992,148.2331)",2024-06-09 08:20,2.0,-43.199243,148.233093,True,False,True,S180284202,4R8CR62M+86,
gyhalb,Gray-headed Albatross,Thalassarche chrysostoma,L33059933,"Tasman Sea, Cape Pillar AU-TAS (-43.1992,148.2331)",2024-06-09 08:20,1.0,-43.199243,148.233093,True,False,True,S180284202,4R8CR62M+86,
marsan,Marsh Sandpiper,Tringa stagnatilis,L2538188,Crab Creek Mangroves (Roebuck Bay),2024-06-09 08:09,1.0,-17.9897541,122.3708296,True,False,False,S180265705,5QJ4296C+38,
tersan,Terek Sandpiper,Xenus cinereus,L2538188,Crab Creek Mangroves (Roebuck Bay),2024-06-09 08:09,15.0,-17.9897541,122.3708296,True,False,False,S180265705,5QJ4296C+38,
brnsku3,Brown Skua,Stercorarius antarcticus,L921577,Leeuwin-Naturaliste National Park--Cape Naturaliste,2024-06-09 07:51,2.0,-33.5391197,115.0160837,True,False,False,S180270206,"F268+9C Naturaliste WA, Australia",
sonthr1,Song Thrush,Turdus philomelos,L32787107,"46 Neds Beach Road, Lord Howe Island, New South Wales, AU (-31.522, 159.063)",2024-06-09 07:02,1.0,-31.5222209,159.0627472,True,False,True,S180616205,"46 Neds Beach Rd, Lord Howe Island NSW 2898, Australia",N
sibbut1,Silver-backed Butcherbird,Cracticus argenteus,L2539525,Mornington Wildlife Sanctuary,2024-06-09 05:35,1.0,-17.5090801,126.1029394,True,False,False,S180318773,5QJ8F4R3+95,
souboo3,Tasmanian Boobook,Ninox leucopsis,L16697204,"75 Cades Drive, Kingston AU-TAS -42.96936, 147.26519",2024-06-09 03:32,1.0,-42.969364,147.26519,True,False,True,S180531500,"75 Cades Dr, Kingston TAS 7050, Australia",
sooowl1,Sooty Owl,Tyto tenebricosa,L2038360,Crater Lakes Rainforest Cottages,2024-06-08 23:03,2.0,-17.2877705,145.6338537,True,False,False,S180290754,"18 Eacham Cl, Lake Eacham QLD 4884, Australia",
blknod,Black Noddy,Anous minutus,L2382484,LHI15--The Clear Place & VoS,2024-06-08 16:37,3.0,-31.52833,159.07972,True,False,False,S180045032,"Clear Pl Track, Lord Howe Island NSW 2898, Australia",
litshe8,Little Shearwater,Puffinus assimilis,L2382484,LHI15--The Clear Place & VoS,2024-06-08 16:37,60.0,-31.52833,159.07972,True,False,False,S180045032,"Clear Pl Track, Lord Howe Island NSW 2898, Australia",
gropar1,Ground Parrot,Pezoporus wallicus,L32999044,Wooloweyah heathland,2024-06-08 16:05,2.0,-29.480235,153.344305,True,False,True,S180039341,"3 Pegus Dr, Wooloweyah NSW 2464, Australia",
fotswi,Pacific Swift,Apus pacificus,L33064679,groper creek road,2024-06-08 16:05,20.0,-19.6983775,147.5118717,True,False,True,S180303540,"8G26+JP Inkerman QLD, Australia",
refboo,Red-footed Booby,Sula sula,L33098419,"Coral Sea off Cape Moreton at -26.99800, 153.64603",2024-06-08 14:02,1.0,-26.998,153.646027,True,True,True,S180442160,5R5M2J2W+RC,
x00741,Yellow-throated x Black-eared Miner (hybrid),Manorina flavigula x melanotis,L919860,Gluepot Reserve,2024-06-08 13:21,2.0,-33.76166,140.12434,True,False,False,S180313987,"64QF+8P Gluepot SA, Australia",
aumowl1,Australian Masked-Owl,Tyto novaehollandiae,L32998645,Glastonbury scrub,2024-06-08 13:01,1.0,-26.262839,152.478538,True,False,True,S180037579,"PFPH+VC Upper Glastonbury QLD, Australia",
gragoo,Graylag Goose,Anser anser,L945869,Centennial Park (Sydney),2024-06-08 10:48,36.0,-33.8977058,151.2341452,True,False,False,S180026892,"2 Darley Rd, Centennial Park NSW 2021, Australia",X
rettro,Red-tailed Tropicbird,Phaethon rubricauda,L2382484,LHI15--The Clear Place & VoS,2024-06-08 10:45,2.0,-31.52833,159.07972,True,False,False,S180616070,"Clear Pl Track, Lord Howe Island NSW 2898, Australia",
brnnod,Brown Noddy,Anous stolidus,L33098236,"Coral Sea off Cape Moreton at -27.01706, 153.75957",2024-06-08 09:24,3.0,-27.017056,153.75957,True,False,True,S180441508,5R4MXQM5+5R,
bkbbit1,Black-backed Bittern,Ixobrychus dubius,L20067673,Sir Charles Kingsford Smith Memorial,2024-06-08 09:19,1.0,-27.3996413,153.1088617,True,False,False,S180019943,"139 Airport Dr, Brisbane Airport QLD 4008, Australia",
wanalb1,Snowy Albatross,Diomedea exulans,L33002371,"Tasman Sea, Cape Pillar AU-TAS (-43.2171,148.2546)",2024-06-08 08:27,2.0,-43.217094,148.254563,True,False,True,S180051597,4R8CQ7M3+5R,
blfmon1,Black-faced Monarch,Monarcha melanopsis,L970768,"Greenwood Lakes, Forestdale",2024-06-08 08:13,1.0,-27.6639169,152.9967213,True,False,False,S179999563,"123 Paradise Rd, Forestdale QLD 4118, Australia",
eclpar4,Papuan Eclectus,Eclectus polychloros,L2539574,"Warri Park Wetland, Port Douglas Rd, Port Douglas",2024-06-08 07:45,1.0,-16.52554,145.46686,True,False,False,S180020885,"33 Ulysses Ave, Port Douglas QLD 4877, Australia",P
frnmon1,Frill-necked Monarch,Arses lorealis,L1308303,Kutini Payamu (Iron Range) National Park--Gordon Creek,2024-06-08 07:30,1.0,-12.7130456,143.307724,True,False,False,S180022985,"78P5+Q3 Iron Range QLD, Australia",
grahon2,Graceful Honeyeater,Microptilotis gracilis,L1308303,Kutini Payamu (Iron Range) National Park--Gordon Creek,2024-06-08 07:30,1.0,-12.7130456,143.307724,True,False,False,S180022985,"78P5+Q3 Iron Range QLD, Australia",
magrif3,Magnificent Riflebird,Ptiloris magnificus,L1308303,Kutini Payamu (Iron Range) National Park--Gordon Creek,2024-06-08 07:30,5.0,-12.7130456,143.307724,True,False,False,S180022985,"78P5+Q3 Iron Range QLD, Australia",
truman1,Trumpet Manucode,Phonygammus keraudrenii,L1308303,Kutini Payamu (Iron Range) National Park--Gordon Creek,2024-06-08 07:30,2.0,-12.7130456,143.307724,True,False,False,S180022985,"78P5+Q3 Iron Range QLD, Australia",
eunhon1,Eungella Honeyeater,Bolemoreus hindwoodi,L3337511,Eungella National Park--Diggings Rd,2024-06-08 07:00,1.0,-21.1433104,148.4880567,True,False,False,S180073985,"VF4Q+M6 Eungella QLD, Australia",
whtnig3,White-throated Nightjar,Eurostopodus mystacalis,L15644665,140 Kruckow Rd (Restricted Access),2024-06-07 20:12,1.0,-17.314539,145.961916,True,False,True,S180041181,"140 Kruckow Rd, East Russell QLD 4861, Australia",
palcoc1,Palm Cockatoo,Probosciger aterrimus,L4718237,Kutini Payamu (Iron Range) National Park--Portland Roads Rd at Chili Beach Rd,2024-06-07 18:00,1.0,-12.629167,143.3834481,True,False,False,S180022772,"99CM+89 Iron Range QLD, Australia",
shtgra1,Short-tailed Grasswren,Amytornis merrotsyi,L8187084,Mt Ive Summit Walk,2024-06-07 17:30,1.0,-32.4520771,136.0721669,True,False,False,S180519176,"G3XC+5V Mount Ive SA, Australia",
rusgra1,Opalton Grasswren,Amytornis rowleyi,L8249840,"Lark Quarry Road, 400 metres north",2024-06-07 13:38,2.0,-23.0244444,142.4391667,True,False,False,S179852441,5R84XCGQ+6M,
rorpar,Rose-ringed Parakeet,Psittacula krameri,L7640519,Redeemer Baptist School,2024-06-07 13:20,1.0,-33.7938959,151.0172725,True,True,True,S179839688,"83 Cumberland Hwy, North Parramatta NSW 2151, Australia",X
slbtho2,Slender-billed Thornbill,Acanthiza iredalei,L1051412,Monkey Mia,2024-06-07 11:42,2.0,-25.7968001,113.7130451,True,False,False,S179865850,"6P37+76 Monkey Mia WA, Australia",
x00410,Superb x Red-backed Fairywren (hybrid),Malurus cyaneus x melanocephalus,L2562415,"Police Creek, Gladstone",2024-06-07 11:24,1.0,-23.87095,151.23901,True,True,False,S180535646,"lions park, West Gladstone QLD 4680, Australia",
cargra2,Carpentarian Grasswren,Amytornis dorotheae,L4711177,"Barkly Hwy, World War II Airfield rest area",2024-06-07 11:12,2.0,-20.3731639,139.265914,True,False,False,S179825231,5QFXJ7G8+P9,
afcdov1,African Collared-Dove,Streptopelia roseogrisea,L32948062,West Beach -- Seaview Rd at Stanhope St,2024-06-07 09:00,4.0,-34.9415835,138.5005301,True,False,True,S179827556,"58 Seaview Rd, West Beach SA 5024, Australia",X
kalgra1,Kalkadoon Grasswren,Amytornis ballarae,L2560866,"Pamela Street Water Tanks, Mt Isa",2024-06-07 07:29,2.0,-20.73194,139.51083,True,False,False,S179879268,"80 Pelican Rd, Townview QLD 4825, Australia",
mutswa,Mute Swan,Cygnus olor,L1176721,Avon River (Northam),2024-06-06 12:28,2.0,-31.6517617,116.6708007,True,False,False,S180083495,"Avon river, Northam WA 6401, Australia",N
grynod1,Gray Noddy,Anous albivitta,L32938681,"AU (-31.598, 159.072)",2024-06-06 11:30,5.0,-31.5984568,159.0721517,True,False,True,S179785478,"C32C+JV Lord Howe Island NSW, Australia",
kerpet,Kermadec Petrel,Pterodroma neglecta,L2382500,LHI25--Balls Pyramid Pelagic,2024-06-06 10:37,8.0,-31.75389,159.25056,True,False,False,S179674849,4RWX67W2+C6,
grefri,Great Frigatebird,Fregata minor,L32910680,"11 Kerr Point Dr, Mission River AU-QLD -12.66580, 141.84434",2024-06-06 10:36,1.0,-12.665804,141.844341,True,False,True,S179663729,5RV38RMV+MP,
ruffie3,Western Fieldwren,Calamanthus montanellus,L3956855,Kalbarri National Park--Red Bluff,2024-06-06 08:53,5.0,-27.74934,114.14113,True,False,False,S179661662,"742R+7F Kalbarri WA, Australia",
whcpet1,White-chinned Petrel,Procellaria aequinoctialis,L1163813,Eaglehawk Neck Pelagic Trip,2024-06-06 07:06,1.0,-43.0906763,148.3212687,True,False,False,S179668365,4R8CW85C+PG,
sander,Sanderling,Calidris alba,L1761188,East Point--far end,2024-06-05 17:26,1.0,-12.4065118,130.8169415,True,False,False,S179502036,"HRV8+9Q East Point NT, Australia",
whiter,White Tern,Gygis alba,L2747657,Mt. Eliza track,2024-06-05 14:53,2.0,-31.5136422,159.0403187,True,False,False,S179503083,"Mt Eliza, Mount Eliza Track, Lord Howe Island NSW 2898, Australia",
paihon1,Painted Honeyeater,Grantiella picta,L32871351,"Cooper Developmental Rd at -26.81058, 142.99807",2024-06-05 10:43,1.0,-26.8405899,142.9642123,True,False,True,S179480019,5R545X57+QM,
cresht2,Western Shrike-tit,Falcunculus leucogaster,L16018297,"Edison Mill Rd, Flint",2024-06-05 09:20,1.0,-32.243496,116.4689258,True,False,False,S179497718,"QF49+JH Flint WA, Australia",
arcter,Arctic Tern,Sterna paradisaea,L1163813,Eaglehawk Neck Pelagic Trip,2024-06-05 07:05,1.0,-43.0906763,148.3212687,True,True,False,S179490633,4R8CW85C+PG,
gospar1,Golden-shouldered Parrot,Psephotellus chrysopterygius,L2040202,Artemis Station (restricted access),2024-06-04 18:55,4.0,-14.9777667,143.5772109,True,False,False,S179302900,5RQ52HCG+VV,
spwduc1,Spotted Whistling-Duck,Dendrocygna guttata,L2295587,Keatings Lagoon Conservation Park (Cooktown),2024-06-04 09:38,2.0,-15.507339,145.2280408,True,False,False,S179652896,"F6VH+36 Cooktown QLD, Australia",
blnter1,Black-naped Tern,Sterna sumatrana,L2540806,Agincourt Reefs,2024-06-04 09:28,17.0,-16.00555,145.84144,True,False,False,S179295909,5RM7XRVR+QH,
chbbut2,Chestnut-backed Buttonquail,Turnix castanotus,L32828867,"0852, Manbulloo AU-NT -14.93053, 131.96240",2024-06-04 09:02,2.0,-14.930525,131.9624,True,False,True,S179285162,5QQH3X96+QX,
x00806,Little x Long-billed Corella (hybrid),Cacatua sanguinea x tenuirostris,L2555918,Lane Cove National Park--Boronia Park to Buffalo Creek,2024-06-04 08:00,2.0,-33.82288,151.14666,True,True,False,S179274639,"1 Meyers Ave, Hunters Hill NSW 2110, Australia",
kimhon1,Kimberley Honeyeater,Territornis fordiana,L17211408,Vansittart Bay (C53 wreck),2024-06-03 09:34,2.0,-14.1283333,126.3091667,True,False,False,S179072412,5QQ8V8C5+MM,
whwter,White-winged Tern,Chlidonias leucopterus,L985449,Broome South Wastewater Treatment Plant,2024-06-03 08:41,1.0,-17.9746307,122.2218919,True,False,False,S179076967,"34 B Clementson St, Minyirr WA 6725, Australia",
briter1,Bridled Tern,Onychoprion anaethetus,L32722596,Mar del Coral (Australia1),2024-06-02 17:46,1.0,-9.347823,143.6731,True,False,True,S178809195,6R25MM2F+V6,
copqut1,Copperback Quail-thrush,Cinclosoma clarum,L23506153,Middleback Rd,2024-06-02 13:25,3.0,-33.1695538,137.0407968,True,False,True,S178814719,"R2JR+58 Middleback Range SA, Australia",
strshe,Streaked Shearwater,Calonectris leucomelas,L32722766,"At sea -13.73780, 127.63021",2024-06-02 10:09,3.0,-13.737797,127.630206,True,False,True,S178809875,5QR97J6J+V3,
salalb1,Salvin's Albatross,Thalassarche salvini,L1163813,Eaglehawk Neck Pelagic Trip,2024-06-02 07:28,1.0,-43.0906763,148.3212687,True,False,False,S179321107,4R8CW85C+PG,
sooter1,Sooty Tern,Onychoprion fuscatus,L32572461,"Ashmore Reef (-12.239, 122.98)",2024-06-01 13:27,,-12.2390223,122.9802258,True,False,True,S179333397,5QV4QX6J+93,
weswhi1,Western Whipbird,Psophodes nigrogularis,L32647962,"956 Wanna Rd, Lincoln National Park AU-SA -34.82694, 135.84727",2024-06-01 09:01,1.0,-34.826937,135.847265,True,False,True,S178494230,"Wanna Rd, Lincoln National Park SA 5607, Australia",
blbqua1,Blue-breasted Quail,Synoicus chinensis,L10571892,Kye's backyard,2024-05-30 23:22,1.0,-27.1158826,152.7533282,True,False,True,S178175225,"1940 State Route 58, Mount Mee QLD 4521, Australia",
asikoe3,Pacific Koel,Eudynamys orientalis,L32561000,"1 Pago Tce, Pacific Pines AU-QLD -27.93671, 153.32364",2024-05-30 12:33,1.0,-27.93671,153.323638,True,False,True,S178116301,"1 Pago Terrace, Pacific Pines QLD 4211, Australia",
chbcuc3,Chestnut-breasted Cuckoo,Cacomantis castaneiventris,L2539396,"Euluma Creek Rd, Julatten at -16.56237, 145.38771 (restricted access)",2024-05-30 08:05,1.0,-16.56237,145.38771,True,True,False,S178112972,"159 Euluma Creek Rd, Julatten QLD 4871, Australia",
blemin1,Black-eared Miner,Manorina melanotis,L2557774,Gluepot Reserve--Josies Hideaway (Grasswren Tank),2024-05-30 07:26,2.0,-33.7056432,140.212664,True,False,False,S179834231,"76V7+P3 Gluepot SA, Australia",
egygoo,Egyptian Goose,Alopochen aegyptiaca,L5589433,"Fairhill Rd Dams at -26.5250, 152.9674 (North Arm)",2024-05-29 10:53,1.0,-26.5250424,152.9674081,True,True,False,S178087173,"272 Fairhill Rd, North Arm QLD 4561, Australia",X
cresht3,Northern Shrike-tit,Falcunculus whitei,L1120589,Drysdale River Station,2024-05-29 06:30,3.0,-15.7026,126.3786,True,True,False,S178566492,"Drysdale River Station, Gibb River-Kalumburu Rd, Drysdale River WA 6740, Australia",
yermun1,Yellow-rumped Munia,Lonchura flaviprymna,L2538504,"Bradshaw Bridge at -15.61389, 130.4075",2024-05-28 17:04,3.0,-15.61389,130.4075,True,False,False,S177926578,"Bradshaw Bridge, Bradshaw Training Area, Gregory NT 0852, Australia",
flfshe,Flesh-footed Shearwater,Ardenna carneipes,L2562064,Coral Bay,2024-05-28 16:56,4.0,-23.14288,113.7751,True,False,False,S177754811,"64 Banksia Dr, Coral Bay WA 6701, Australia",
comsan,Common Sandpiper,Actitis hypoleucos,L7797010,Johns Creek at Point Samson-Roebourne Rd,2024-05-28 09:51,1.0,-20.6296869,117.1775308,True,False,False,S177721242,"Popes Nose Bridge, Point Samson-Roebourne Rd, Point Samson WA 6720, Australia",
wesbri1,Western Bristlebird,Dasyornis longirostris,L921845,Arpenteur Nature Reserve (incl. encompassing trails),2024-05-28 06:55,3.0,-34.8850112,118.4162621,True,False,False,S180269365,"4C78+XG Cheynes WA, Australia",
nosbir1,Noisy Scrub-bird,Atrichornis clamosus,L921845,Arpenteur Nature Reserve (incl. encompassing trails),2024-05-28 06:55,3.0,-34.8850112,118.4162621,True,False,False,S180269365,"4C78+XG Cheynes WA, Australia",
blfpar3,Blue-faced Parrotfinch,Erythrura trichroa,L4803810,"Julatten, Jim Weir Road.",2024-05-27 13:13,1.0,-16.6272015,145.3199863,True,False,False,S177476712,"30 Jim Weir Rd, Julatten QLD 4871, Australia",
wiltur,Wild Turkey,Meleagris gallopavo,L1158734,Emu Bay,2024-05-27 12:55,3.0,-35.5929012,137.5062561,True,False,False,S177472535,"43 Hamilton Dr, Emu Bay SA 5223, Australia",P
brbsan,Broad-billed Sandpiper,Calidris falcinellus,L989143,Kidney Bean Claypan and Duck Lake,2024-05-27 12:02,12.0,-17.9771,122.42084,True,False,False,S177517718,5QJ42CFC+58,
ostric2,Common Ostrich,Struthio camelus,L3668259,Kojonup,2024-05-26 14:22,10.0,-33.8371691,117.1604712,True,True,False,S177178798,"4 Spencer St, Kojonup WA 6395, Australia",X
dollar1,Dollarbird,Eurystomus orientalis,L2558227,"Shanley, Morayfield (restricted access)",2024-05-26 07:00,1.0,-27.13833,152.8825,True,False,False,S178131237,"35 Sunbird Ct, Moorina QLD 4506, Australia",
bkbplo,Black-bellied Plover,Pluvialis squatarola,L32280175,"Unnamed Road, Exmouth Gulf, Western Australia, AU (-22.295, 114.127)Bookings Rest",2024-05-25 09:30,2.0,-22.2948125,114.1265234,True,False,True,S176902114,5P9PP44G+3J,
sopsku1,South Polar Skua,Stercorarius maccormicki,L3321508,Cheynes Beach Caravan Park,2024-05-25 07:00,1.0,-34.8837771,118.4046257,True,True,False,S177151736,"Cheynes Beach Caravan Park, 12 Bald Is Rd, Cheynes WA 6328, Australia",
blagra1,Black Grasswren,Amytornis housei,L2539862,Mitchell River National Park--general,2024-05-25 06:00,3.0,-14.8236175,125.7051798,True,False,False,S178572008,5QQ75PG4+H3,
grygra1,Gray Grasswren,Amytornis barbatus,L32349826,Birdsville track,2024-05-23 07:00,2.0,-26.65389,139.61667,True,False,True,S177193033,5Q5X8JW8+CM,
whfrob1,White-faced Robin,Eopsaltria leucops,L5890284,Kutini Payamu (Iron Range) National Park--Cooks Hut to Rainforest Camping area,2024-05-18 16:07,2.0,-12.7115955,143.2899132,True,False,False,S176095004,"Portland Rd, Iron Range QLD 4892, Australia",
recpar2,Red-cheeked Parrot,Geoffroyus geoffroyi,L5890284,Kutini Payamu (Iron Range) National Park--Cooks Hut to Rainforest Camping area,2024-05-18 16:07,3.0,-12.7115955,143.2899132,True,False,False,S176095004,"Portland Rd, Iron Range QLD 4892, Australia",
becscr1,Tropical Scrubwren,Sericornis beccarii,L5890284,Kutini Payamu (Iron Range) National Park--Cooks Hut to Rainforest Camping area,2024-05-18 16:07,2.0,-12.7115955,143.2899132,True,False,False,S176095004,"Portland Rd, Iron Range QLD 4892, Australia",
satfly1,Satin Flycatcher,Myiagra cyanoleuca,L9641752,Whiteman Creek (Private Property),2024-05-18 13:16,1.0,-29.5858186,152.8418933,True,True,True,S175223653,"40 Whiteman Creek Rd, The Whiteman NSW 2460, Australia",
eaywag,Eastern Yellow Wagtail,Motacilla tschutschensis,L31977863,Plantation road verge on highway,2024-05-18 12:25,1.0,-24.8612616,113.707006,True,True,True,S175503341,"1086 N W Coastal Hwy, Brown Range WA 6701, Australia",
tahpet1,Tahiti Petrel,Pseudobulweria rostrata,L28317038,"Auto selected -27.84132, 153.93214",2024-05-18 11:39,1.0,-27.84132,153.93214,True,False,True,S176676068,5R4M5W5J+FV,
oripra,Oriental Pratincole,Glareola maldivarum,L986014,Dampier Creek saltmarsh (The Common),2024-05-18 07:07,1.0,-17.9230256,122.2651398,True,False,False,S175204463,5QJ437G8+Q3,
oriplo1,Oriental Plover,Anarhynchus veredus,L986014,Dampier Creek saltmarsh (The Common),2024-05-18 07:07,1.0,-17.9230256,122.2651398,True,True,False,S175204463,5QJ437G8+Q3,
yebkin1,Yellow-billed Kingfisher,Syma torotoro,L2038367,Kutini-Payamu (Iron Range) National Park,2024-05-18 07:00,3.0,-12.659014,143.3473778,True,False,False,S176438326,"88RW+9X Iron Range QLD, Australia",
grbhon1,Green-backed Honeyeater,Glycichaera fallax,L2038367,Kutini-Payamu (Iron Range) National Park,2024-05-18 07:00,5.0,-12.659014,143.3473778,True,False,False,S176438326,"88RW+9X Iron Range QLD, Australia",
nosrob1,Northern Scrub-Robin,Drymodes superciliaris,L2038367,Kutini-Payamu (Iron Range) National Park,2024-05-18 07:00,2.0,-12.659014,143.3473778,True,False,False,S176438326,"88RW+9X Iron Range QLD, Australia",
sccpar1,Scarlet-chested Parrot,Neophema splendida,L31875841,"6431, Plumridge Lakes AU-WA (-29.4746,124.4909)",2024-05-17 12:40,2.0,-29.474602,124.490901,True,False,True,S175031406,5Q26GFGR+59,
comred1,Common Redshank,Tringa totanus,L3442562,Wader Spit (Roebuck Bay),2024-05-15 15:24,1.0,-17.979327,122.336533,True,False,False,S174619127,5QJ428CP+7J,
bluebo4,Naretha Bluebonnet,Northiella narethae,L2536340,Koonalda Homestead,2024-05-15 08:37,2.0,-31.45568,129.85827,True,False,False,S175606155,4QWFGVV5+P8,
